{
"type": "FeatureCollection",
"name": "ni_rainfall",
"features": [
{ "type": "Feature", "id": 990, "properties": { "OBJECTID": 990, "GRID_ID": "AB-62", "pr": 846.82141113299997, "Shape__Area": 0.019901022625873566, "Shape__Length": 0.5852332874050562 }, "geometry": { "type": "Polygon", "coordinates": [ [ [ -6.32128, 54.46185 ], [ -6.30996, 54.3543 ], [ -6.49406, 54.34757 ], [ -6.50585, 54.4551 ], [ -6.32128, 54.46185 ] ] ] } },
{ "type": "Feature", "id": 1176, "properties": { "OBJECTID": 1176, "GRID_ID": "AB-55", "pr": 1058.953735352, "Shape__Area": 0.020271496808419442, "Shape__Length": 0.59217961803157448 }, "geometry": { "type": "Polygon", "coordinates": [ [ [ -6.40261, 55.21461 ], [ -6.39076, 55.10708 ], [ -6.57828, 55.10017 ], [ -6.59063, 55.20767 ], [ -6.40261, 55.21461 ] ] ] } },
{ "type": "Feature", "id": 907, "properties": { "OBJECTID": 907, "GRID_ID": "AC-65", "pr": 1349.0871582029999, "Shape__Area": 0.019753745138075374, "Shape__Length": 0.58243414949269412 }, "geometry": { "type": "Polygon", "coordinates": [ [ [ -6.10434, 54.14558 ], [ -6.09371, 54.038 ], [ -6.27646, 54.03163 ], [ -6.28756, 54.13919 ], [ -6.10434, 54.14558 ] ] ] } },
{ "type": "Feature", "id": 1070, "properties": { "OBJECTID": 1070, "GRID_ID": "AB-59", "pr": 923.89434814499998, "Shape__Area": 0.020057694483909927, "Shape__Length": 0.58817021181857154 }, "geometry": { "type": "Polygon", "coordinates": [ [ [ -6.35567, 54.78448 ], [ -6.34413, 54.67694 ], [ -6.52968, 54.67014 ], [ -6.54171, 54.77765 ], [ -6.35567, 54.78448 ] ] ] } },
{ "type": "Feature", "id": 1047, "properties": { "OBJECTID": 1047, "GRID_ID": "AC-60", "pr": 899.56774902300003, "Shape__Area": 0.020011666622110624, "Shape__Length": 0.58726501775248297 }, "geometry": { "type": "Polygon", "coordinates": [ [ [ -6.15851, 54.68347 ], [ -6.14753, 54.5759 ], [ -6.33267, 54.5694 ], [ -6.34413, 54.67694 ], [ -6.15851, 54.68347 ] ] ] } },
{ "type": "Feature", "id": 1122, "properties": { "OBJECTID": 1122, "GRID_ID": "Y-57", "pr": 1226.337890625, "Shape__Area": 0.020142180886807637, "Shape__Length": 0.58989771121454604 }, "geometry": { "type": "Polygon", "coordinates": [ [ [ -6.9398, 54.97803 ], [ -6.92662, 54.87058 ], [ -7.11289, 54.86286 ], [ -7.12657, 54.97028 ], [ -6.9398, 54.97803 ] ] ] } },
{ "type": "Feature", "id": 1073, "properties": { "OBJECTID": 1073, "GRID_ID": "AE-59", "pr": 1148.372436523, "Shape__Area": 0.020076612573063812, "Shape__Length": 0.58840132801881917 }, "geometry": { "type": "Polygon", "coordinates": [ [ [ -5.79713, 54.80328 ], [ -5.78706, 54.69566 ], [ -5.97282, 54.68971 ], [ -5.98338, 54.7973 ], [ -5.79713, 54.80328 ] ] ] } },
{ "type": "Feature", "id": 1150, "properties": { "OBJECTID": 1150, "GRID_ID": "Z-56", "pr": 1179.454101562, "Shape__Area": 0.020203227722277006, "Shape__Length": 0.59099447547627115 }, "geometry": { "type": "Polygon", "coordinates": [ [ [ -6.76572, 55.09296 ], [ -6.75295, 54.98549 ], [ -6.9398, 54.97803 ], [ -6.95307, 55.08547 ], [ -6.76572, 55.09296 ] ] ] } },
{ "type": "Feature", "id": 1153, "properties": { "OBJECTID": 1153, "GRID_ID": "AC-56", "pr": 1408.0799560549999, "Shape__Area": 0.020224228027103663, "Shape__Length": 0.59124807305608151 }, "geometry": { "type": "Polygon", "coordinates": [ [ [ -6.20316, 55.11371 ], [ -6.19189, 55.00616 ], [ -6.37899, 54.99956 ], [ -6.39076, 55.10708 ], [ -6.20316, 55.11371 ] ] ] } },
{ "type": "Feature", "id": 1013, "properties": { "OBJECTID": 1013, "GRID_ID": "U-61", "pr": 1189.8737792970001, "Shape__Area": 0.019899765517465084, "Shape__Length": 0.58554684939955304 }, "geometry": { "type": "Polygon", "coordinates": [ [ [ -7.62632, 54.51602 ], [ -7.61157, 54.40868 ], [ -7.79553, 54.39996 ], [ -7.81076, 54.50727 ], [ -7.62632, 54.51602 ] ] ] } },
{ "type": "Feature", "id": 1096, "properties": { "OBJECTID": 1096, "GRID_ID": "AB-58", "pr": 984.52093505899995, "Shape__Area": 0.020110613069050487, "Shape__Length": 0.58916242128146012 }, "geometry": { "type": "Polygon", "coordinates": [ [ [ -6.36729, 54.89202 ], [ -6.35567, 54.78448 ], [ -6.54171, 54.77765 ], [ -6.55382, 54.88516 ], [ -6.36729, 54.89202 ] ] ] } },
{ "type": "Feature", "id": 1019, "properties": { "OBJECTID": 1019, "GRID_ID": "AA-61", "pr": 866.50103759800004, "Shape__Area": 0.019946129487550479, "Shape__Length": 0.58612204321476036 }, "geometry": { "type": "Polygon", "coordinates": [ [ [ -6.51773, 54.56262 ], [ -6.50585, 54.4551 ], [ -6.69035, 54.44806 ], [ -6.70271, 54.55556 ], [ -6.51773, 54.56262 ] ] ] } },
{ "type": "Feature", "id": 1090, "properties": { "OBJECTID": 1090, "GRID_ID": "V-58", "pr": 1203.905273438, "Shape__Area": 0.020064992850421959, "Shape__Length": 0.58860457066092164 }, "geometry": { "type": "Polygon", "coordinates": [ [ [ -7.48517, 54.84657 ], [ -7.47061, 54.73922 ], [ -7.65611, 54.73068 ], [ -7.67116, 54.838 ], [ -7.48517, 54.84657 ] ] ] } },
{ "type": "Feature", "id": 1067, "properties": { "OBJECTID": 1067, "GRID_ID": "Y-59", "pr": 1431.183959961, "Shape__Area": 0.020036276521466334, "Shape__Length": 0.58790766277112283 }, "geometry": { "type": "Polygon", "coordinates": [ [ [ -6.91353, 54.76313 ], [ -6.90052, 54.65567 ], [ -7.08582, 54.64802 ], [ -7.09931, 54.75544 ], [ -6.91353, 54.76313 ] ] ] } },
{ "type": "Feature", "id": 1178, "properties": { "OBJECTID": 1178, "GRID_ID": "AD-55", "pr": 1361.5151367190001, "Shape__Area": 0.020284735468919735, "Shape__Length": 0.59233843245063478 }, "geometry": { "type": "Polygon", "coordinates": [ [ [ -6.02633, 55.22763 ], [ -6.01549, 55.12005 ], [ -6.20316, 55.11371 ], [ -6.21451, 55.22127 ], [ -6.02633, 55.22763 ] ] ] } },
{ "type": "Feature", "id": 1121, "properties": { "OBJECTID": 1121, "GRID_ID": "X-57", "pr": 1199.3627929690001, "Shape__Area": 0.020134386304363261, "Shape__Length": 0.58980278562924771 }, "geometry": { "type": "Polygon", "coordinates": [ [ [ -7.12657, 54.97028 ], [ -7.11289, 54.86286 ], [ -7.29908, 54.85486 ], [ -7.31324, 54.96225 ], [ -7.12657, 54.97028 ] ] ] } },
{ "type": "Feature", "id": 1147, "properties": { "OBJECTID": 1147, "GRID_ID": "W-56", "pr": 1188.407226562, "Shape__Area": 0.020179688429834641, "Shape__Length": 0.59070910383787134 }, "geometry": { "type": "Polygon", "coordinates": [ [ [ -7.3275, 55.06963 ], [ -7.31324, 54.96225 ], [ -7.49982, 54.95393 ], [ -7.51458, 55.06128 ], [ -7.3275, 55.06963 ] ] ] } },
{ "type": "Feature", "id": 1127, "properties": { "OBJECTID": 1127, "GRID_ID": "AD-57", "pr": 1409.5144042970001, "Shape__Area": 0.020176946873021961, "Shape__Length": 0.59031954932914699 }, "geometry": { "type": "Polygon", "coordinates": [ [ [ -6.00471, 55.01247 ], [ -5.99401, 54.90489 ], [ -6.18069, 54.8986 ], [ -6.19189, 55.00616 ], [ -6.00471, 55.01247 ] ] ] } },
{ "type": "Feature", "id": 1012, "properties": { "OBJECTID": 1012, "GRID_ID": "T-61", "pr": 1412.8283691409999, "Shape__Area": 0.019891089423850872, "Shape__Length": 0.58543873529959822 }, "geometry": { "type": "Polygon", "coordinates": [ [ [ -7.81076, 54.50727 ], [ -7.79553, 54.39996 ], [ -7.9794, 54.39097 ], [ -7.9951, 54.49824 ], [ -7.81076, 54.50727 ] ] ] } },
{ "type": "Feature", "id": 1064, "properties": { "OBJECTID": 1064, "GRID_ID": "V-59", "pr": 1286.4421386720001, "Shape__Area": 0.020012374129237287, "Shape__Length": 0.58761354593919779 }, "geometry": { "type": "Polygon", "coordinates": [ [ [ -7.47061, 54.73922 ], [ -7.45615, 54.63185 ], [ -7.64117, 54.62335 ], [ -7.65611, 54.73068 ], [ -7.47061, 54.73922 ] ] ] } },
{ "type": "Feature", "id": 1095, "properties": { "OBJECTID": 1095, "GRID_ID": "AA-58", "pr": 1076.6864013669999, "Shape__Area": 0.020103705307803921, "Shape__Length": 0.58907823012187666 }, "geometry": { "type": "Polygon", "coordinates": [ [ [ -6.55382, 54.88516 ], [ -6.54171, 54.77765 ], [ -6.72766, 54.77053 ], [ -6.74026, 54.87801 ], [ -6.55382, 54.88516 ] ] ] } },
{ "type": "Feature", "id": 1072, "properties": { "OBJECTID": 1072, "GRID_ID": "AD-59", "pr": 1124.9434814450001, "Shape__Area": 0.020070585188335599, "Shape__Length": 0.5883277739424565 }, "geometry": { "type": "Polygon", "coordinates": [ [ [ -5.98338, 54.7973 ], [ -5.97282, 54.68971 ], [ -6.15851, 54.68347 ], [ -6.16956, 54.79103 ], [ -5.98338, 54.7973 ] ] ] } },
{ "type": "Feature", "id": 1041, "properties": { "OBJECTID": 1041, "GRID_ID": "V-60", "pr": 1422.703125, "Shape__Area": 0.019960101401011343, "Shape__Length": 0.58662919481331588 }, "geometry": { "type": "Polygon", "coordinates": [ [ [ -7.45615, 54.63185 ], [ -7.44178, 54.52449 ], [ -7.62632, 54.51602 ], [ -7.64117, 54.62335 ], [ -7.45615, 54.63185 ] ] ] } },
{ "type": "Feature", "id": 989, "properties": { "OBJECTID": 989, "GRID_ID": "AA-62", "pr": 841.13897705099998, "Shape__Area": 0.01989429371337792, "Shape__Length": 0.5851498062781435 }, "geometry": { "type": "Polygon", "coordinates": [ [ [ -6.50585, 54.4551 ], [ -6.49406, 54.34757 ], [ -6.67808, 54.34057 ], [ -6.69035, 54.44806 ], [ -6.50585, 54.4551 ] ] ] } },
{ "type": "Feature", "id": 1124, "properties": { "OBJECTID": 1124, "GRID_ID": "AA-57", "pr": 1171.7531738279999, "Shape__Area": 0.020156930425400787, "Shape__Length": 0.5900769880204052 }, "geometry": { "type": "Polygon", "coordinates": [ [ [ -6.56601, 54.99267 ], [ -6.55382, 54.88516 ], [ -6.74026, 54.87801 ], [ -6.75295, 54.98549 ], [ -6.56601, 54.99267 ] ] ] } },
{ "type": "Feature", "id": 961, "properties": { "OBJECTID": 961, "GRID_ID": "AE-63", "pr": 1052.9678955080001, "Shape__Area": 0.01986791314459424, "Shape__Length": 0.5844965179730004 }, "geometry": { "type": "Polygon", "coordinates": [ [ [ -5.75724, 54.3728 ], [ -5.74743, 54.26517 ], [ -5.93127, 54.25931 ], [ -5.94155, 54.36691 ], [ -5.75724, 54.3728 ] ] ] } },
{ "type": "Feature", "id": 1021, "properties": { "OBJECTID": 1021, "GRID_ID": "AD-61", "pr": 972.18884277300003, "Shape__Area": 0.019965624954267014, "Shape__Length": 0.58636261093803821 }, "geometry": { "type": "Polygon", "coordinates": [ [ [ -5.96233, 54.58211 ], [ -5.95191, 54.47452 ], [ -6.13663, 54.46832 ], [ -6.14753, 54.5759 ], [ -5.96233, 54.58211 ] ] ] } },
{ "type": "Feature", "id": 1044, "properties": { "OBJECTID": 1044, "GRID_ID": "Y-60", "pr": 1252.238647461, "Shape__Area": 0.019983847568568081, "Shape__Length": 0.58692266797868586 }, "geometry": { "type": "Polygon", "coordinates": [ [ [ -6.90052, 54.65567 ], [ -6.8876, 54.54821 ], [ -7.07242, 54.54059 ], [ -7.08582, 54.64802 ], [ -6.90052, 54.65567 ] ] ] } },
{ "type": "Feature", "id": 1123, "properties": { "OBJECTID": 1123, "GRID_ID": "Z-57", "pr": 1375.3907470700001, "Shape__Area": 0.020149695796646938, "Shape__Length": 0.58998911014187227 }, "geometry": { "type": "Polygon", "coordinates": [ [ [ -6.75295, 54.98549 ], [ -6.74026, 54.87801 ], [ -6.92662, 54.87058 ], [ -6.9398, 54.97803 ], [ -6.75295, 54.98549 ] ] ] } },
{ "type": "Feature", "id": 1149, "properties": { "OBJECTID": 1149, "GRID_ID": "Y-56", "pr": 1058.5004882809999, "Shape__Area": 0.020195662587497054, "Shape__Length": 0.59090288980963956 }, "geometry": { "type": "Polygon", "coordinates": [ [ [ -6.95307, 55.08547 ], [ -6.9398, 54.97803 ], [ -7.12657, 54.97028 ], [ -7.14033, 55.07769 ], [ -6.95307, 55.08547 ] ] ] } },
{ "type": "Feature", "id": 1120, "properties": { "OBJECTID": 1120, "GRID_ID": "W-57", "pr": 1094.8015136720001, "Shape__Area": 0.020126312679252578, "Shape__Length": 0.5897043276467171 }, "geometry": { "type": "Polygon", "coordinates": [ [ [ -7.31324, 54.96225 ], [ -7.29908, 54.85486 ], [ -7.48517, 54.84657 ], [ -7.49982, 54.95393 ], [ -7.31324, 54.96225 ] ] ] } },
{ "type": "Feature", "id": 1089, "properties": { "OBJECTID": 1089, "GRID_ID": "U-58", "pr": 2050.7683105470001, "Shape__Area": 0.020056419985024831, "Shape__Length": 0.58849925965273342 }, "geometry": { "type": "Polygon", "coordinates": [ [ [ -7.67116, 54.838 ], [ -7.65611, 54.73068 ], [ -7.84152, 54.72186 ], [ -7.85705, 54.82915 ], [ -7.67116, 54.838 ] ] ] } },
{ "type": "Feature", "id": 1066, "properties": { "OBJECTID": 1066, "GRID_ID": "X-59", "pr": 1426.3901367190001, "Shape__Area": 0.020028584292504092, "Shape__Length": 0.58781313831471427 }, "geometry": { "type": "Polygon", "coordinates": [ [ [ -7.09931, 54.75544 ], [ -7.08582, 54.64802 ], [ -7.27103, 54.64008 ], [ -7.28501, 54.74747 ], [ -7.09931, 54.75544 ] ] ] } },
{ "type": "Feature", "id": 926, "properties": { "OBJECTID": 926, "GRID_ID": "W-64", "pr": 1072.1456298830001, "Shape__Area": 0.019762388999566838, "Shape__Length": 0.58285771303304645 }, "geometry": { "type": "Polygon", "coordinates": [ [ [ -7.21603, 54.21046 ], [ -7.2025, 54.10304 ], [ -7.38524, 54.09498 ], [ -7.39924, 54.20236 ], [ -7.21603, 54.21046 ] ] ] } },
{ "type": "Feature", "id": 1043, "properties": { "OBJECTID": 1043, "GRID_ID": "X-60", "pr": 1174.9998779299999, "Shape__Area": 0.019976205649157919, "Shape__Length": 0.58682834811910933 }, "geometry": { "type": "Polygon", "coordinates": [ [ [ -7.08582, 54.64802 ], [ -7.07242, 54.54059 ], [ -7.25714, 54.53268 ], [ -7.27103, 54.64008 ], [ -7.08582, 54.64802 ] ] ] } },
{ "type": "Feature", "id": 1020, "properties": { "OBJECTID": 1020, "GRID_ID": "AC-61", "pr": 895.00958251999998, "Shape__Area": 0.019959401015256617, "Shape__Length": 0.58628589325750413 }, "geometry": { "type": "Polygon", "coordinates": [ [ [ -6.14753, 54.5759 ], [ -6.13663, 54.46832 ], [ -6.32128, 54.46185 ], [ -6.33267, 54.5694 ], [ -6.14753, 54.5759 ] ] ] } },
{ "type": "Feature", "id": 1175, "properties": { "OBJECTID": 1175, "GRID_ID": "AA-55", "pr": 1078.6424560549999, "Shape__Area": 0.020264449447523702, "Shape__Length": 0.59209492187064205 }, "geometry": { "type": "Polygon", "coordinates": [ [ [ -6.59063, 55.20767 ], [ -6.57828, 55.10017 ], [ -6.76572, 55.09296 ], [ -6.77857, 55.20043 ], [ -6.59063, 55.20767 ] ] ] } },
{ "type": "Feature", "id": 1126, "properties": { "OBJECTID": 1126, "GRID_ID": "AC-57", "pr": 1262.657836914, "Shape__Area": 0.020170556516745819, "Shape__Length": 0.5902422023672389 }, "geometry": { "type": "Polygon", "coordinates": [ [ [ -6.19189, 55.00616 ], [ -6.18069, 54.8986 ], [ -6.36729, 54.89202 ], [ -6.37899, 54.99956 ], [ -6.19189, 55.00616 ] ] ] } },
{ "type": "Feature", "id": 1152, "properties": { "OBJECTID": 1152, "GRID_ID": "AB-56", "pr": 1070.6784667970001, "Shape__Area": 0.020217511024526402, "Shape__Length": 0.59116706146174658 }, "geometry": { "type": "Polygon", "coordinates": [ [ [ -6.39076, 55.10708 ], [ -6.37899, 54.99956 ], [ -6.56601, 54.99267 ], [ -6.57828, 55.10017 ], [ -6.39076, 55.10708 ] ] ] } },
{ "type": "Feature", "id": 960, "properties": { "OBJECTID": 960, "GRID_ID": "AD-63", "pr": 1167.9538574220001, "Shape__Area": 0.019862041321545121, "Shape__Length": 0.58442357730096295 }, "geometry": { "type": "Polygon", "coordinates": [ [ [ -5.94155, 54.36691 ], [ -5.93127, 54.25931 ], [ -6.11503, 54.25317 ], [ -6.12579, 54.36075 ], [ -5.94155, 54.36691 ] ] ] } },
{ "type": "Feature", "id": 1063, "properties": { "OBJECTID": 1063, "GRID_ID": "U-59", "pr": 1647.881225586, "Shape__Area": 0.020003857488006815, "Shape__Length": 0.58750846720261607 }, "geometry": { "type": "Polygon", "coordinates": [ [ [ -7.65611, 54.73068 ], [ -7.64117, 54.62335 ], [ -7.82609, 54.61457 ], [ -7.84152, 54.72186 ], [ -7.65611, 54.73068 ] ] ] } },
{ "type": "Feature", "id": 1046, "properties": { "OBJECTID": 1046, "GRID_ID": "AA-60", "pr": 922.88043212900004, "Shape__Area": 0.019998307961060391, "Shape__Length": 0.58710081917448198 }, "geometry": { "type": "Polygon", "coordinates": [ [ [ -6.52968, 54.67014 ], [ -6.51773, 54.56262 ], [ -6.70271, 54.55556 ], [ -6.71514, 54.66305 ], [ -6.52968, 54.67014 ] ] ] } },
{ "type": "Feature", "id": 1069, "properties": { "OBJECTID": 1069, "GRID_ID": "AA-59", "pr": 1062.568725586, "Shape__Area": 0.020050832199984825, "Shape__Length": 0.58808619445504617 }, "geometry": { "type": "Polygon", "coordinates": [ [ [ -6.54171, 54.77765 ], [ -6.52968, 54.67014 ], [ -6.71514, 54.66305 ], [ -6.72766, 54.77053 ], [ -6.54171, 54.77765 ] ] ] } },
{ "type": "Feature", "id": 988, "properties": { "OBJECTID": 988, "GRID_ID": "Z-62", "pr": 876.59234619100005, "Shape__Area": 0.019887292882231122, "Shape__Length": 0.58506285553293458 }, "geometry": { "type": "Polygon", "coordinates": [ [ [ -6.69035, 54.44806 ], [ -6.67808, 54.34057 ], [ -6.86202, 54.33328 ], [ -6.87477, 54.44075 ], [ -6.69035, 54.44806 ] ] ] } },
{ "type": "Feature", "id": 1088, "properties": { "OBJECTID": 1088, "GRID_ID": "T-58", "pr": 2147.9487304690001, "Shape__Area": 0.020047571880184023, "Shape__Length": 0.58839040895544004 }, "geometry": { "type": "Polygon", "coordinates": [ [ [ -7.85705, 54.82915 ], [ -7.84152, 54.72186 ], [ -8.02682, 54.71276 ], [ -8.04284, 54.82001 ], [ -7.85705, 54.82915 ] ] ] } },
{ "type": "Feature", "id": 1074, "properties": { "OBJECTID": 1074, "GRID_ID": "AF-59", "pr": 1021.077758789, "Shape__Area": 0.020082360658506104, "Shape__Length": 0.5884714033958337 }, "geometry": { "type": "Polygon", "coordinates": [ [ [ -5.61081, 54.80897 ], [ -5.60123, 54.70133 ], [ -5.78706, 54.69566 ], [ -5.79713, 54.80328 ], [ -5.61081, 54.80897 ] ] ] } },
{ "type": "Feature", "id": 1151, "properties": { "OBJECTID": 1151, "GRID_ID": "AA-56", "pr": 1098.177734375, "Shape__Area": 0.020210510732482589, "Shape__Length": 0.5910825307887777 }, "geometry": { "type": "Polygon", "coordinates": [ [ [ -6.57828, 55.10017 ], [ -6.56601, 54.99267 ], [ -6.75295, 54.98549 ], [ -6.76572, 55.09296 ], [ -6.57828, 55.10017 ] ] ] } },
{ "type": "Feature", "id": 1125, "properties": { "OBJECTID": 1125, "GRID_ID": "AB-57", "pr": 1122.239624023, "Shape__Area": 0.020163884186956693, "Shape__Length": 0.59016135032083594 }, "geometry": { "type": "Polygon", "coordinates": [ [ [ -6.37899, 54.99956 ], [ -6.36729, 54.89202 ], [ -6.55382, 54.88516 ], [ -6.56601, 54.99267 ], [ -6.37899, 54.99956 ] ] ] } },
{ "type": "Feature", "id": 1174, "properties": { "OBJECTID": 1174, "GRID_ID": "Z-55", "pr": 1098.9187011720001, "Shape__Area": 0.020257117496527144, "Shape__Length": 0.59200669205824152 }, "geometry": { "type": "Polygon", "coordinates": [ [ [ -6.77857, 55.20043 ], [ -6.76572, 55.09296 ], [ -6.95307, 55.08547 ], [ -6.96642, 55.19291 ], [ -6.77857, 55.20043 ] ] ] } },
{ "type": "Feature", "id": 962, "properties": { "OBJECTID": 962, "GRID_ID": "AF-63", "pr": 892.24694824200003, "Shape__Area": 0.019873512806327653, "Shape__Length": 0.58456601381817386 }, "geometry": { "type": "Polygon", "coordinates": [ [ [ -5.57287, 54.3784 ], [ -5.56354, 54.27075 ], [ -5.74743, 54.26517 ], [ -5.75724, 54.3728 ], [ -5.57287, 54.3784 ] ] ] } },
{ "type": "Feature", "id": 1154, "properties": { "OBJECTID": 1154, "GRID_ID": "AD-56", "pr": 1544.053344727, "Shape__Area": 0.020230661191362742, "Shape__Length": 0.59132557097075145 }, "geometry": { "type": "Polygon", "coordinates": [ [ [ -6.01549, 55.12005 ], [ -6.00471, 55.01247 ], [ -6.19189, 55.00616 ], [ -6.20316, 55.11371 ], [ -6.01549, 55.12005 ] ] ] } },
{ "type": "Feature", "id": 1214, "properties": { "OBJECTID": 1214, "GRID_ID": "AF-53", "pr": 1579.5184326169999, "Shape__Area": 0.020400344643007884, "Shape__Length": 0.59444445056772244 }, "geometry": { "type": "Polygon", "coordinates": [ [ [ -5.67069, 55.4547 ], [ -5.66071, 55.3471 ], [ -5.84951, 55.34129 ], [ -5.86, 55.44887 ], [ -5.67069, 55.4547 ] ] ] } },
{ "type": "Feature", "id": 1062, "properties": { "OBJECTID": 1062, "GRID_ID": "T-59", "pr": 2150.4685058589998, "Shape__Area": 0.019995067370842889, "Shape__Length": 0.58739985939439676 }, "geometry": { "type": "Polygon", "coordinates": [ [ [ -7.84152, 54.72186 ], [ -7.82609, 54.61457 ], [ -8.01091, 54.6055 ], [ -8.02682, 54.71276 ], [ -7.84152, 54.72186 ] ] ] } },
{ "type": "Feature", "id": 1045, "properties": { "OBJECTID": 1045, "GRID_ID": "Z-60", "pr": 1060.7751464840001, "Shape__Area": 0.019991215201315526, "Shape__Length": 0.58701349002965009 }, "geometry": { "type": "Polygon", "coordinates": [ [ [ -6.71514, 54.66305 ], [ -6.70271, 54.55556 ], [ -6.8876, 54.54821 ], [ -6.90052, 54.65567 ], [ -6.71514, 54.66305 ] ] ] } },
{ "type": "Feature", "id": 1068, "properties": { "OBJECTID": 1068, "GRID_ID": "Z-59", "pr": 1362.485717773, "Shape__Area": 0.020043692688517467, "Shape__Length": 0.58799867977432085 }, "geometry": { "type": "Polygon", "coordinates": [ [ [ -6.72766, 54.77053 ], [ -6.71514, 54.66305 ], [ -6.90052, 54.65567 ], [ -6.91353, 54.76313 ], [ -6.72766, 54.77053 ] ] ] } },
{ "type": "Feature", "id": 1177, "properties": { "OBJECTID": 1177, "GRID_ID": "AC-55", "pr": 1255.5913085940001, "Shape__Area": 0.020278259000775734, "Shape__Length": 0.59226078634631718 }, "geometry": { "type": "Polygon", "coordinates": [ [ [ -6.21451, 55.22127 ], [ -6.20316, 55.11371 ], [ -6.39076, 55.10708 ], [ -6.40261, 55.21461 ], [ -6.21451, 55.22127 ] ] ] } },
{ "type": "Feature", "id": 1148, "properties": { "OBJECTID": 1148, "GRID_ID": "X-56", "pr": 1107.4030761720001, "Shape__Area": 0.020187815944041176, "Shape__Length": 0.5908077679289917 }, "geometry": { "type": "Polygon", "coordinates": [ [ [ -7.14033, 55.07769 ], [ -7.12657, 54.97028 ], [ -7.31324, 54.96225 ], [ -7.3275, 55.06963 ], [ -7.14033, 55.07769 ] ] ] } },
{ "type": "Feature", "id": 1071, "properties": { "OBJECTID": 1071, "GRID_ID": "AC-59", "pr": 940.87084960899995, "Shape__Area": 0.020064278989650575, "Shape__Length": 0.58825073673710915 }, "geometry": { "type": "Polygon", "coordinates": [ [ [ -6.16956, 54.79103 ], [ -6.15851, 54.68347 ], [ -6.34413, 54.67694 ], [ -6.35567, 54.78448 ], [ -6.16956, 54.79103 ] ] ] } },
{ "type": "Feature", "id": 925, "properties": { "OBJECTID": 925, "GRID_ID": "V-64", "pr": 1087.4696044919999, "Shape__Area": 0.019754409728022893, "Shape__Length": 0.58275730531684033 }, "geometry": { "type": "Polygon", "coordinates": [ [ [ -7.39924, 54.20236 ], [ -7.38524, 54.09498 ], [ -7.56789, 54.08664 ], [ -7.58235, 54.19399 ], [ -7.39924, 54.20236 ] ] ] } },
{ "type": "Feature", "id": 1011, "properties": { "OBJECTID": 1011, "GRID_ID": "S-61", "pr": 1298.5207519529999, "Shape__Area": 0.019882144005237024, "Shape__Length": 0.58532710821735356 }, "geometry": { "type": "Polygon", "coordinates": [ [ [ -7.9951, 54.49824 ], [ -7.9794, 54.39097 ], [ -8.16316, 54.3817 ], [ -8.17934, 54.48893 ], [ -7.9951, 54.49824 ] ] ] } },
{ "type": "Feature", "id": 908, "properties": { "OBJECTID": 908, "GRID_ID": "AD-65", "pr": 1248.415039062, "Shape__Area": 0.019759810034457814, "Shape__Length": 0.58251020196916325 }, "geometry": { "type": "Polygon", "coordinates": [ [ [ -5.92105, 54.1517 ], [ -5.9109, 54.04409 ], [ -6.09371, 54.038 ], [ -6.10434, 54.14558 ], [ -5.92105, 54.1517 ] ] ] } },
{ "type": "Feature", "id": 1048, "properties": { "OBJECTID": 1048, "GRID_ID": "AD-60", "pr": 1120.6594238279999, "Shape__Area": 0.020017931457175564, "Shape__Length": 0.58734189636547041 }, "geometry": { "type": "Polygon", "coordinates": [ [ [ -5.97282, 54.68971 ], [ -5.96233, 54.58211 ], [ -6.14753, 54.5759 ], [ -6.15851, 54.68347 ], [ -5.97282, 54.68971 ] ] ] } },
{ "type": "Feature", "id": 1094, "properties": { "OBJECTID": 1094, "GRID_ID": "Z-58", "pr": 1561.835327148, "Shape__Area": 0.020096518509149064, "Shape__Length": 0.58899053249246169 }, "geometry": { "type": "Polygon", "coordinates": [ [ [ -6.74026, 54.87801 ], [ -6.72766, 54.77053 ], [ -6.91353, 54.76313 ], [ -6.92662, 54.87058 ], [ -6.74026, 54.87801 ] ] ] } },
{ "type": "Feature", "id": 1065, "properties": { "OBJECTID": 1065, "GRID_ID": "W-59", "pr": 1244.285522461, "Shape__Area": 0.020020616616335474, "Shape__Length": 0.58771510115673498 }, "geometry": { "type": "Polygon", "coordinates": [ [ [ -7.28501, 54.74747 ], [ -7.27103, 54.64008 ], [ -7.45615, 54.63185 ], [ -7.47061, 54.73922 ], [ -7.28501, 54.74747 ] ] ] } },
{ "type": "Feature", "id": 1042, "properties": { "OBJECTID": 1042, "GRID_ID": "W-60", "pr": 1182.9711914059999, "Shape__Area": 0.019968290050513815, "Shape__Length": 0.58673052543671844 }, "geometry": { "type": "Polygon", "coordinates": [ [ [ -7.27103, 54.64008 ], [ -7.25714, 54.53268 ], [ -7.44178, 54.52449 ], [ -7.45615, 54.63185 ], [ -7.27103, 54.64008 ] ] ] } },
{ "type": "Feature", "id": 984, "properties": { "OBJECTID": 984, "GRID_ID": "V-62", "pr": 1226.9516601559999, "Shape__Area": 0.019856581713099786, "Shape__Length": 0.58468026760691272 }, "geometry": { "type": "Polygon", "coordinates": [ [ [ -7.4275, 54.41712 ], [ -7.41332, 54.30974 ], [ -7.59691, 54.30134 ], [ -7.61157, 54.40868 ], [ -7.4275, 54.41712 ] ] ] } },
{ "type": "Feature", "id": 983, "properties": { "OBJECTID": 983, "GRID_ID": "U-62", "pr": 1174.5883789059999, "Shape__Area": 0.019848229975082177, "Shape__Length": 0.5845759013343852 }, "geometry": { "type": "Polygon", "coordinates": [ [ [ -7.61157, 54.40868 ], [ -7.59691, 54.30134 ], [ -7.7804, 54.29266 ], [ -7.79553, 54.39996 ], [ -7.61157, 54.40868 ] ] ] } },
{ "type": "Feature", "id": 985, "properties": { "OBJECTID": 985, "GRID_ID": "W-62", "pr": 1204.2731933590001, "Shape__Area": 0.01986466449639579, "Shape__Length": 0.58478114146053517 }, "geometry": { "type": "Polygon", "coordinates": [ [ [ -7.24335, 54.42527 ], [ -7.22965, 54.31787 ], [ -7.41332, 54.30974 ], [ -7.4275, 54.41712 ], [ -7.24335, 54.42527 ] ] ] } },
{ "type": "Feature", "id": 1039, "properties": { "OBJECTID": 1039, "GRID_ID": "T-60", "pr": 1316.1076660159999, "Shape__Area": 0.019942907566473878, "Shape__Length": 0.58641598879865375 }, "geometry": { "type": "Polygon", "coordinates": [ [ [ -7.82609, 54.61457 ], [ -7.81076, 54.50727 ], [ -7.9951, 54.49824 ], [ -8.01091, 54.6055 ], [ -7.82609, 54.61457 ] ] ] } },
{ "type": "Feature", "id": 953, "properties": { "OBJECTID": 953, "GRID_ID": "W-63", "pr": 1240.0487060549999, "Shape__Area": 0.019813359476330561, "Shape__Length": 0.5838162125032248 }, "geometry": { "type": "Polygon", "coordinates": [ [ [ -7.22965, 54.31787 ], [ -7.21603, 54.21046 ], [ -7.39924, 54.20236 ], [ -7.41332, 54.30974 ], [ -7.22965, 54.31787 ] ] ] } },
{ "type": "Feature", "id": 1099, "properties": { "OBJECTID": 1099, "GRID_ID": "AE-58", "pr": 1253.164428711, "Shape__Area": 0.020129656666171059, "Shape__Length": 0.58939400614303517 }, "geometry": { "type": "Polygon", "coordinates": [ [ [ -5.80726, 54.91089 ], [ -5.79713, 54.80328 ], [ -5.98338, 54.7973 ], [ -5.99401, 54.90489 ], [ -5.80726, 54.91089 ] ] ] } },
{ "type": "Feature", "id": 1016, "properties": { "OBJECTID": 1016, "GRID_ID": "X-61", "pr": 1106.854125977, "Shape__Area": 0.019924171129474644, "Shape__Length": 0.58585016476879481 }, "geometry": { "type": "Polygon", "coordinates": [ [ [ -7.07242, 54.54059 ], [ -7.0591, 54.43315 ], [ -7.24335, 54.42527 ], [ -7.25714, 54.53268 ], [ -7.07242, 54.54059 ] ] ] } },
{ "type": "Feature", "id": 1093, "properties": { "OBJECTID": 1093, "GRID_ID": "Y-58", "pr": 1667.018188477, "Shape__Area": 0.020089053252547728, "Shape__Length": 0.58889932315891635 }, "geometry": { "type": "Polygon", "coordinates": [ [ [ -6.92662, 54.87058 ], [ -6.91353, 54.76313 ], [ -7.09931, 54.75544 ], [ -7.11289, 54.86286 ], [ -6.92662, 54.87058 ] ] ] } },
{ "type": "Feature", "id": 993, "properties": { "OBJECTID": 993, "GRID_ID": "AE-62", "pr": 995.26495361299999, "Shape__Area": 0.01991957264777966, "Shape__Length": 0.58546295492195233 }, "geometry": { "type": "Polygon", "coordinates": [ [ [ -5.76711, 54.48042 ], [ -5.75724, 54.3728 ], [ -5.94155, 54.36691 ], [ -5.95191, 54.47452 ], [ -5.76711, 54.48042 ] ] ] } },
{ "type": "Feature", "id": 930, "properties": { "OBJECTID": 930, "GRID_ID": "AB-64", "pr": 1084.367797852, "Shape__Area": 0.019798280658136491, "Shape__Length": 0.58330782434152917 }, "geometry": { "type": "Polygon", "coordinates": [ [ [ -6.29872, 54.24675 ], [ -6.28756, 54.13919 ], [ -6.4707, 54.13251 ], [ -6.48234, 54.24005 ], [ -6.29872, 54.24675 ] ] ] } },
{ "type": "Feature", "id": 927, "properties": { "OBJECTID": 927, "GRID_ID": "X-64", "pr": 1078.2192382809999, "Shape__Area": 0.019770102069628592, "Shape__Length": 0.58295465337600938 }, "geometry": { "type": "Polygon", "coordinates": [ [ [ -7.03273, 54.21827 ], [ -7.01968, 54.11082 ], [ -7.2025, 54.10304 ], [ -7.21603, 54.21046 ], [ -7.03273, 54.21827 ] ] ] } },
{ "type": "Feature", "id": 950, "properties": { "OBJECTID": 950, "GRID_ID": "T-63", "pr": 1553.6538085940001, "Shape__Area": 0.019788466131672067, "Shape__Length": 0.5835038360543594 }, "geometry": { "type": "Polygon", "coordinates": [ [ [ -7.7804, 54.29266 ], [ -7.76537, 54.18534 ], [ -7.9483, 54.17642 ], [ -7.9638, 54.2837 ], [ -7.7804, 54.29266 ] ] ] } },
{ "type": "Feature", "id": 929, "properties": { "OBJECTID": 929, "GRID_ID": "AA-64", "pr": 1209.8928222659999, "Shape__Area": 0.019791638182198312, "Shape__Length": 0.58322471204882298 }, "geometry": { "type": "Polygon", "coordinates": [ [ [ -6.48234, 54.24005 ], [ -6.4707, 54.13251 ], [ -6.65378, 54.12556 ], [ -6.66589, 54.23307 ], [ -6.48234, 54.24005 ] ] ] } },
{ "type": "Feature", "id": 992, "properties": { "OBJECTID": 992, "GRID_ID": "AD-62", "pr": 983.05352783199999, "Shape__Area": 0.01991366259244387, "Shape__Length": 0.58538985766570839 }, "geometry": { "type": "Polygon", "coordinates": [ [ [ -5.95191, 54.47452 ], [ -5.94155, 54.36691 ], [ -6.12579, 54.36075 ], [ -6.13663, 54.46832 ], [ -5.95191, 54.47452 ] ] ] } },
{ "type": "Feature", "id": 1018, "properties": { "OBJECTID": 1018, "GRID_ID": "Z-61", "pr": 1010.036071777, "Shape__Area": 0.019939082951992759, "Shape__Length": 0.58603490208380826 }, "geometry": { "type": "Polygon", "coordinates": [ [ [ -6.70271, 54.55556 ], [ -6.69035, 54.44806 ], [ -6.87477, 54.44075 ], [ -6.8876, 54.54821 ], [ -6.70271, 54.55556 ] ] ] } },
{ "type": "Feature", "id": 981, "properties": { "OBJECTID": 981, "GRID_ID": "S-62", "pr": 1377.836547852, "Shape__Area": 0.019830722269887247, "Shape__Length": 0.58435667216476528 }, "geometry": { "type": "Polygon", "coordinates": [ [ [ -7.9794, 54.39097 ], [ -7.9638, 54.2837 ], [ -8.14709, 54.27446 ], [ -8.16316, 54.3817 ], [ -7.9794, 54.39097 ] ] ] } },
{ "type": "Feature", "id": 932, "properties": { "OBJECTID": 932, "GRID_ID": "AD-64", "pr": 1571.233032227, "Shape__Area": 0.019810758128130601, "Shape__Length": 0.58346371133159103 }, "geometry": { "type": "Polygon", "coordinates": [ [ [ -5.93127, 54.25931 ], [ -5.92105, 54.1517 ], [ -6.10434, 54.14558 ], [ -6.11503, 54.25317 ], [ -5.93127, 54.25931 ] ] ] } },
{ "type": "Feature", "id": 1038, "properties": { "OBJECTID": 1038, "GRID_ID": "S-60", "pr": 1323.3475341799999, "Shape__Area": 0.019933903741645054, "Shape__Length": 0.58630410272312394 }, "geometry": { "type": "Polygon", "coordinates": [ [ [ -8.01091, 54.6055 ], [ -7.9951, 54.49824 ], [ -8.17934, 54.48893 ], [ -8.19563, 54.59615 ], [ -8.01091, 54.6055 ] ] ] } },
{ "type": "Feature", "id": 958, "properties": { "OBJECTID": 958, "GRID_ID": "AB-63", "pr": 941.19976806600005, "Shape__Area": 0.019849483060511375, "Shape__Length": 0.58426734660020874 }, "geometry": { "type": "Polygon", "coordinates": [ [ [ -6.30996, 54.3543 ], [ -6.29872, 54.24675 ], [ -6.48234, 54.24005 ], [ -6.49406, 54.34757 ], [ -6.30996, 54.3543 ] ] ] } },
{ "type": "Feature", "id": 1015, "properties": { "OBJECTID": 1015, "GRID_ID": "W-61", "pr": 1232.637329102, "Shape__Area": 0.019916307021844659, "Shape__Length": 0.58575255911611879 }, "geometry": { "type": "Polygon", "coordinates": [ [ [ -7.25714, 54.53268 ], [ -7.24335, 54.42527 ], [ -7.4275, 54.41712 ], [ -7.44178, 54.52449 ], [ -7.25714, 54.53268 ] ] ] } },
{ "type": "Feature", "id": 906, "properties": { "OBJECTID": 906, "GRID_ID": "AA-65", "pr": 1032.6147460940001, "Shape__Area": 0.019740812474367431, "Shape__Length": 0.582271737890796 }, "geometry": { "type": "Polygon", "coordinates": [ [ [ -6.4707, 54.13251 ], [ -6.45914, 54.02498 ], [ -6.64174, 54.01805 ], [ -6.65378, 54.12556 ], [ -6.4707, 54.13251 ] ] ] } },
{ "type": "Feature", "id": 1098, "properties": { "OBJECTID": 1098, "GRID_ID": "AD-58", "pr": 1355.2153320309999, "Shape__Area": 0.020123589272628806, "Shape__Length": 0.58932030442224714 }, "geometry": { "type": "Polygon", "coordinates": [ [ [ -5.99401, 54.90489 ], [ -5.98338, 54.7973 ], [ -6.16956, 54.79103 ], [ -6.18069, 54.8986 ], [ -5.99401, 54.90489 ] ] ] } },
{ "type": "Feature", "id": 952, "properties": { "OBJECTID": 952, "GRID_ID": "V-63", "pr": 1115.2973632809999, "Shape__Area": 0.019805328739067818, "Shape__Length": 0.58371557060138901 }, "geometry": { "type": "Polygon", "coordinates": [ [ [ -7.41332, 54.30974 ], [ -7.39924, 54.20236 ], [ -7.58235, 54.19399 ], [ -7.59691, 54.30134 ], [ -7.41332, 54.30974 ] ] ] } },
{ "type": "Feature", "id": 1040, "properties": { "OBJECTID": 1040, "GRID_ID": "U-60", "pr": 1391.889648438, "Shape__Area": 0.019951640349717081, "Shape__Length": 0.58652435103470246 }, "geometry": { "type": "Polygon", "coordinates": [ [ [ -7.64117, 54.62335 ], [ -7.62632, 54.51602 ], [ -7.81076, 54.50727 ], [ -7.82609, 54.61457 ], [ -7.64117, 54.62335 ] ] ] } },
{ "type": "Feature", "id": 954, "properties": { "OBJECTID": 954, "GRID_ID": "X-63", "pr": 1177.0167236330001, "Shape__Area": 0.019821122327925877, "Shape__Length": 0.58391337687880929 }, "geometry": { "type": "Polygon", "coordinates": [ [ [ -7.04588, 54.32571 ], [ -7.03273, 54.21827 ], [ -7.21603, 54.21046 ], [ -7.22965, 54.31787 ], [ -7.04588, 54.32571 ] ] ] } },
{ "type": "Feature", "id": 994, "properties": { "OBJECTID": 994, "GRID_ID": "AF-62", "pr": 889.07989501999998, "Shape__Area": 0.019925208787157089, "Shape__Length": 0.58553259879217223 }, "geometry": { "type": "Polygon", "coordinates": [ [ [ -5.58226, 54.48605 ], [ -5.57287, 54.3784 ], [ -5.75724, 54.3728 ], [ -5.76711, 54.48042 ], [ -5.58226, 54.48605 ] ] ] } },
{ "type": "Feature", "id": 1017, "properties": { "OBJECTID": 1017, "GRID_ID": "Y-61", "pr": 1151.8513183590001, "Shape__Area": 0.019931763306288985, "Shape__Length": 0.58594427749560718 }, "geometry": { "type": "Polygon", "coordinates": [ [ [ -6.8876, 54.54821 ], [ -6.87477, 54.44075 ], [ -7.0591, 54.43315 ], [ -7.07242, 54.54059 ], [ -6.8876, 54.54821 ] ] ] } },
{ "type": "Feature", "id": 1023, "properties": { "OBJECTID": 1023, "GRID_ID": "AF-61", "pr": 899.23297119100005, "Shape__Area": 0.019977246708265284, "Shape__Length": 0.58650565254605336 }, "geometry": { "type": "Polygon", "coordinates": [ [ [ -5.59171, 54.59369 ], [ -5.58226, 54.48605 ], [ -5.76711, 54.48042 ], [ -5.77705, 54.58805 ], [ -5.59171, 54.59369 ] ] ] } },
{ "type": "Feature", "id": 1092, "properties": { "OBJECTID": 1092, "GRID_ID": "X-58", "pr": 1467.5731201169999, "Shape__Area": 0.020081310138692743, "Shape__Length": 0.58880459675504926 }, "geometry": { "type": "Polygon", "coordinates": [ [ [ -7.11289, 54.86286 ], [ -7.09931, 54.75544 ], [ -7.28501, 54.74747 ], [ -7.29908, 54.85486 ], [ -7.11289, 54.86286 ] ] ] } },
{ "type": "Feature", "id": 982, "properties": { "OBJECTID": 982, "GRID_ID": "T-62", "pr": 1430.9724121090001, "Shape__Area": 0.019839609936070701, "Shape__Length": 0.58446803781862389 }, "geometry": { "type": "Polygon", "coordinates": [ [ [ -7.79553, 54.39996 ], [ -7.7804, 54.29266 ], [ -7.9638, 54.2837 ], [ -7.9794, 54.39097 ], [ -7.79553, 54.39996 ] ] ] } },
{ "type": "Feature", "id": 931, "properties": { "OBJECTID": 931, "GRID_ID": "AC-64", "pr": 1229.8221435549999, "Shape__Area": 0.019804654139335298, "Shape__Length": 0.58338748951876829 }, "geometry": { "type": "Polygon", "coordinates": [ [ [ -6.11503, 54.25317 ], [ -6.10434, 54.14558 ], [ -6.28756, 54.13919 ], [ -6.29872, 54.24675 ], [ -6.11503, 54.25317 ] ] ] } },
{ "type": "Feature", "id": 959, "properties": { "OBJECTID": 959, "GRID_ID": "AC-63", "pr": 1004.6418457029999, "Shape__Area": 0.019855897799203603, "Shape__Length": 0.5843471881147545 }, "geometry": { "type": "Polygon", "coordinates": [ [ [ -6.12579, 54.36075 ], [ -6.11503, 54.25317 ], [ -6.29872, 54.24675 ], [ -6.30996, 54.3543 ], [ -6.12579, 54.36075 ] ] ] } },
{ "type": "Feature", "id": 905, "properties": { "OBJECTID": 905, "GRID_ID": "Z-65", "pr": 862.74548339800003, "Shape__Area": 0.019733945710839862, "Shape__Length": 0.58218537151706062 }, "geometry": { "type": "Polygon", "coordinates": [ [ [ -6.65378, 54.12556 ], [ -6.64174, 54.01805 ], [ -6.82427, 54.01085 ], [ -6.83677, 54.11833 ], [ -6.65378, 54.12556 ] ] ] } },
{ "type": "Feature", "id": 1097, "properties": { "OBJECTID": 1097, "GRID_ID": "AC-58", "pr": 1079.7489013669999, "Shape__Area": 0.020117241235851679, "Shape__Length": 0.58924311106585248 }, "geometry": { "type": "Polygon", "coordinates": [ [ [ -6.18069, 54.8986 ], [ -6.16956, 54.79103 ], [ -6.35567, 54.78448 ], [ -6.36729, 54.89202 ], [ -6.18069, 54.8986 ] ] ] } },
{ "type": "Feature", "id": 1014, "properties": { "OBJECTID": 1014, "GRID_ID": "V-61", "pr": 1298.7739257809999, "Shape__Area": 0.019908171604015479, "Shape__Length": 0.5856514556518928 }, "geometry": { "type": "Polygon", "coordinates": [ [ [ -7.44178, 54.52449 ], [ -7.4275, 54.41712 ], [ -7.61157, 54.40868 ], [ -7.62632, 54.51602 ], [ -7.44178, 54.52449 ] ] ] } },
{ "type": "Feature", "id": 1022, "properties": { "OBJECTID": 1022, "GRID_ID": "AE-61", "pr": 985.77825927699996, "Shape__Area": 0.019971573676372145, "Shape__Length": 0.586435862685313 }, "geometry": { "type": "Polygon", "coordinates": [ [ [ -5.77705, 54.58805 ], [ -5.76711, 54.48042 ], [ -5.95191, 54.47452 ], [ -5.96233, 54.58211 ], [ -5.77705, 54.58805 ] ] ] } },
{ "type": "Feature", "id": 951, "properties": { "OBJECTID": 951, "GRID_ID": "U-63", "pr": 1303.7752685549999, "Shape__Area": 0.019797030742125798, "Shape__Length": 0.58361144665052533 }, "geometry": { "type": "Polygon", "coordinates": [ [ [ -7.59691, 54.30134 ], [ -7.58235, 54.19399 ], [ -7.76537, 54.18534 ], [ -7.7804, 54.29266 ], [ -7.59691, 54.30134 ] ] ] } },
{ "type": "Feature", "id": 928, "properties": { "OBJECTID": 928, "GRID_ID": "Z-64", "pr": 1117.1326904299999, "Shape__Area": 0.019784727229733789, "Shape__Length": 0.58313814878103398 }, "geometry": { "type": "Polygon", "coordinates": [ [ [ -6.66589, 54.23307 ], [ -6.65378, 54.12556 ], [ -6.83677, 54.11833 ], [ -6.84935, 54.22581 ], [ -6.66589, 54.23307 ] ] ] } },
{ "type": "Feature", "id": 1091, "properties": { "OBJECTID": 1091, "GRID_ID": "W-58", "pr": 1202.5977783200001, "Shape__Area": 0.020073289789991122, "Shape__Length": 0.58870634779086695 }, "geometry": { "type": "Polygon", "coordinates": [ [ [ -7.29908, 54.85486 ], [ -7.28501, 54.74747 ], [ -7.47061, 54.73922 ], [ -7.48517, 54.84657 ], [ -7.29908, 54.85486 ] ] ] } },
{ "type": "Feature", "id": 991, "properties": { "OBJECTID": 991, "GRID_ID": "AC-62", "pr": 897.93640136700003, "Shape__Area": 0.01990747908882895, "Shape__Length": 0.58531330315929275 }, "geometry": { "type": "Polygon", "coordinates": [ [ [ -6.13663, 54.46832 ], [ -6.12579, 54.36075 ], [ -6.30996, 54.3543 ], [ -6.32128, 54.46185 ], [ -6.13663, 54.46832 ] ] ] } },
{ "type": "Feature", "id": 924, "properties": { "OBJECTID": 924, "GRID_ID": "U-64", "pr": 1412.9389648440001, "Shape__Area": 0.019746164873595262, "Shape__Length": 0.5826534259210393 }, "geometry": { "type": "Polygon", "coordinates": [ [ [ -7.58235, 54.19399 ], [ -7.56789, 54.08664 ], [ -7.75044, 54.07803 ], [ -7.76537, 54.18534 ], [ -7.58235, 54.19399 ] ] ] } },
{ "type": "Feature", "id": 987, "properties": { "OBJECTID": 987, "GRID_ID": "Y-62", "pr": 990.90496826200001, "Shape__Area": 0.019880020683984867, "Shape__Length": 0.58497243080967698 }, "geometry": { "type": "Polygon", "coordinates": [ [ [ -6.87477, 54.44075 ], [ -6.86202, 54.33328 ], [ -7.04588, 54.32571 ], [ -7.0591, 54.43315 ], [ -6.87477, 54.44075 ] ] ] } },
{ "type": "Feature", "id": 956, "properties": { "OBJECTID": 956, "GRID_ID": "Z-63", "pr": 940.28265380899995, "Shape__Area": 0.019835841970063939, "Shape__Length": 0.58409729073162953 }, "geometry": { "type": "Polygon", "coordinates": [ [ [ -6.67808, 54.34057 ], [ -6.66589, 54.23307 ], [ -6.84935, 54.22581 ], [ -6.86202, 54.33328 ], [ -6.67808, 54.34057 ] ] ] } },
{ "type": "Feature", "id": 955, "properties": { "OBJECTID": 955, "GRID_ID": "Y-63", "pr": 861.46539306600005, "Shape__Area": 0.019828616687817657, "Shape__Length": 0.58400706817022507 }, "geometry": { "type": "Polygon", "coordinates": [ [ [ -6.86202, 54.33328 ], [ -6.84935, 54.22581 ], [ -7.03273, 54.21827 ], [ -7.04588, 54.32571 ], [ -6.86202, 54.33328 ] ] ] } },
{ "type": "Feature", "id": 986, "properties": { "OBJECTID": 986, "GRID_ID": "X-62", "pr": 1200.6417236330001, "Shape__Area": 0.019872477691109225, "Shape__Length": 0.5848785276413293 }, "geometry": { "type": "Polygon", "coordinates": [ [ [ -7.0591, 54.43315 ], [ -7.04588, 54.32571 ], [ -7.22965, 54.31787 ], [ -7.24335, 54.42527 ], [ -7.0591, 54.43315 ] ] ] } },
{ "type": "Feature", "id": 957, "properties": { "OBJECTID": 957, "GRID_ID": "AA-63", "pr": 1001.91583252, "Shape__Area": 0.019842797609300078, "Shape__Length": 0.5841840488223673 }, "geometry": { "type": "Polygon", "coordinates": [ [ [ -6.49406, 54.34757 ], [ -6.48234, 54.24005 ], [ -6.66589, 54.23307 ], [ -6.67808, 54.34057 ], [ -6.49406, 54.34757 ] ] ] } },
{ "type": "Feature", "id": 1049, "properties": { "OBJECTID": 1049, "GRID_ID": "AE-60", "pr": 1030.6018066409999, "Shape__Area": 0.020023919286899172, "Shape__Length": 0.58741530041793133 }, "geometry": { "type": "Polygon", "coordinates": [ [ [ -5.78706, 54.69566 ], [ -5.77705, 54.58805 ], [ -5.96233, 54.58211 ], [ -5.97282, 54.68971 ], [ -5.78706, 54.69566 ] ] ] } }
]
}
