{
"type": "FeatureCollection",
"name": "ne_10m_geographic_lines",
"features": [
{ "type": "Feature", "properties": { "name": "Tropic of Capricorn", "kind": "Circle of latitude" }, "geometry": { "type": "LineString", "coordinates": [ [ -180.0, -23.5599 ], [ -178.923, -23.5599 ], [ -177.923, -23.5599 ], [ -176.923, -23.5599 ], [ -175.923, -23.5599 ], [ -174.923, -23.5599 ], [ -173.923, -23.5599 ], [ -172.923, -23.5599 ], [ -172.5, -23.5599 ], [ -171.923, -23.5599 ], [ -170.923, -23.5599 ], [ -169.923, -23.5599 ], [ -168.923, -23.5599 ], [ -167.923, -23.5599 ], [ -166.923, -23.5599 ], [ -165.923, -23.5599 ], [ -164.923, -23.5599 ], [ -163.923, -23.5599 ], [ -162.923, -23.5599 ], [ -161.9231, -23.5599 ], [ -160.923, -23.5599 ], [ -159.923, -23.5599 ], [ -158.923, -23.5599 ], [ -157.923, -23.5599 ], [ -156.923, -23.5599 ], [ -155.923, -23.5599 ], [ -154.923, -23.5599 ], [ -153.923, -23.5599 ], [ -152.923, -23.5599 ], [ -151.923, -23.5599 ], [ -150.923, -23.5599 ], [ -149.9229, -23.5599 ], [ -148.9231, -23.5599 ], [ -147.923, -23.5599 ], [ -146.923, -23.5599 ], [ -145.923, -23.5599 ], [ -144.923, -23.5599 ], [ -143.923, -23.5599 ], [ -142.923, -23.5599 ], [ -141.923, -23.5599 ], [ -140.923, -23.5599 ], [ -139.9231, -23.5599 ], [ -138.923, -23.5599 ], [ -137.9231, -23.5599 ], [ -136.923, -23.5599 ], [ -135.923, -23.5599 ], [ -134.923, -23.5599 ], [ -133.923, -23.5599 ], [ -132.923, -23.5599 ], [ -131.923, -23.5599 ], [ -130.923, -23.5599 ], [ -129.923, -23.5599 ], [ -128.923, -23.5599 ], [ -127.9229, -23.5599 ], [ -126.9231, -23.5599 ], [ -125.923, -23.5599 ], [ -124.923, -23.5599 ], [ -123.923, -23.5599 ], [ -122.923, -23.5599 ], [ -121.923, -23.5599 ], [ -120.923, -23.5599 ], [ -119.9231, -23.5599 ], [ -118.923, -23.5599 ], [ -117.9231, -23.5599 ], [ -116.923, -23.5599 ], [ -115.9231, -23.5599 ], [ -114.923, -23.5599 ], [ -113.923, -23.5599 ], [ -112.923, -23.5599 ], [ -111.923, -23.5599 ], [ -110.923, -23.5599 ], [ -109.923, -23.5599 ], [ -108.9231, -23.5599 ], [ -107.923, -23.5599 ], [ -106.923, -23.5599 ], [ -105.923, -23.5599 ], [ -104.9231, -23.5599 ], [ -103.9231, -23.5599 ], [ -102.923, -23.5599 ], [ -101.923, -23.5599 ], [ -100.923, -23.5599 ], [ -99.923, -23.5599 ], [ -98.923, -23.5599 ], [ -97.9231, -23.5599 ], [ -96.923, -23.5599 ], [ -95.9231, -23.5599 ], [ -94.923, -23.5599 ], [ -93.9231, -23.5599 ], [ -92.9231, -23.5599 ], [ -91.923, -23.5599 ], [ -90.923, -23.5599 ], [ -89.923, -23.5599 ], [ -88.9231, -23.5599 ], [ -87.923, -23.5599 ], [ -86.9231, -23.5599 ], [ -85.923, -23.5599 ], [ -84.9231, -23.5599 ], [ -83.9231, -23.5599 ], [ -82.9231, -23.5599 ], [ -81.923, -23.5599 ], [ -80.923, -23.5599 ], [ -79.923, -23.5599 ], [ -78.923, -23.5599 ], [ -77.9231, -23.5599 ], [ -76.923, -23.5599 ], [ -75.9231, -23.5599 ], [ -74.923, -23.5599 ], [ -73.9231, -23.5599 ], [ -72.923, -23.5599 ], [ -71.9231, -23.5599 ], [ -70.9231, -23.5599 ], [ -69.9231, -23.5599 ], [ -68.923, -23.5599 ], [ -67.923, -23.5599 ], [ -66.9231, -23.5599 ], [ -65.923, -23.5599 ], [ -64.9231, -23.5599 ], [ -63.9231, -23.5599 ], [ -62.9231, -23.5599 ], [ -61.9231, -23.5599 ], [ -60.9231, -23.5599 ], [ -59.923, -23.5599 ], [ -58.923, -23.5599 ], [ -57.923, -23.5599 ], [ -56.923, -23.5599 ], [ -55.9231, -23.5599 ], [ -54.923, -23.5599 ], [ -53.9231, -23.5599 ], [ -52.9231, -23.5599 ], [ -51.9231, -23.5599 ], [ -50.9231, -23.5599 ], [ -49.9231, -23.5599 ], [ -48.9231, -23.5599 ], [ -47.923, -23.5599 ], [ -46.9231, -23.5599 ], [ -45.9231, -23.5599 ], [ -44.9231, -23.5599 ], [ -43.9231, -23.5599 ], [ -42.9231, -23.5599 ], [ -41.923, -23.5599 ], [ -40.923, -23.5599 ], [ -39.9231, -23.5599 ], [ -38.9232, -23.5599 ], [ -37.923, -23.5599 ], [ -36.9231, -23.5599 ], [ -35.9231, -23.5599 ], [ -34.9231, -23.5599 ], [ -33.9231, -23.5599 ], [ -32.9231, -23.5599 ], [ -31.9231, -23.5599 ], [ -30.9231, -23.5599 ], [ -29.9232, -23.5599 ], [ -28.9231, -23.5599 ], [ -27.9232, -23.5599 ], [ -26.9231, -23.5599 ], [ -25.9231, -23.5599 ], [ -24.9231, -23.5599 ], [ -23.9231, -23.5599 ], [ -22.9231, -23.5599 ], [ -21.9231, -23.5599 ], [ -20.9231, -23.5599 ], [ -19.9231, -23.5599 ], [ -18.9232, -23.5599 ], [ -17.9231, -23.5599 ], [ -16.9232, -23.5599 ], [ -15.9231, -23.5599 ], [ -14.9231, -23.5599 ], [ -13.9231, -23.5599 ], [ -12.9231, -23.5599 ], [ -11.9231, -23.5599 ], [ -10.9231, -23.5599 ], [ -9.9231, -23.5599 ], [ -8.9231, -23.5599 ], [ -7.9231, -23.5599 ], [ -6.923, -23.5599 ], [ -5.9232, -23.5599 ], [ -4.9231, -23.5599 ], [ -3.9231, -23.5599 ], [ -2.9231, -23.5599 ], [ -1.9231, -23.5599 ], [ -0.9232, -23.5599 ], [ 0.077, -23.5599 ], [ 1.0771, -23.5599 ], [ 2.077, -23.5599 ], [ 3.077, -23.5599 ], [ 4.077, -23.5599 ], [ 5.0771, -23.5599 ], [ 6.077, -23.5599 ], [ 7.0772, -23.5599 ], [ 8.077, -23.5599 ], [ 9.0771, -23.5599 ], [ 10.077, -23.5599 ], [ 11.077, -23.5599 ], [ 12.0771, -23.5599 ], [ 13.077, -23.5599 ], [ 14.0771, -23.5599 ], [ 15.0771, -23.5599 ], [ 16.0771, -23.5599 ], [ 17.077, -23.5599 ], [ 18.0771, -23.5599 ], [ 19.077, -23.5599 ], [ 20.0771, -23.5599 ], [ 21.0771, -23.5599 ], [ 22.0769, -23.5599 ], [ 23.0771, -23.5599 ], [ 24.077, -23.5599 ], [ 25.077, -23.5599 ], [ 26.077, -23.5599 ], [ 27.0771, -23.5599 ], [ 28.0769, -23.5599 ], [ 29.0771, -23.5599 ], [ 30.0771, -23.5599 ], [ 31.077, -23.5599 ], [ 32.0771, -23.5599 ], [ 33.077, -23.5599 ], [ 34.077, -23.5599 ], [ 35.0769, -23.5599 ], [ 36.0771, -23.5599 ], [ 37.077, -23.5599 ], [ 38.0771, -23.5599 ], [ 39.077, -23.5599 ], [ 40.077, -23.5599 ], [ 41.077, -23.5599 ], [ 42.0769, -23.5599 ], [ 43.0771, -23.5599 ], [ 44.0769, -23.5599 ], [ 45.077, -23.5599 ], [ 46.077, -23.5599 ], [ 47.0771, -23.5599 ], [ 48.077, -23.5599 ], [ 49.0771, -23.5599 ], [ 50.077, -23.5599 ], [ 51.0771, -23.5599 ], [ 52.0771, -23.5599 ], [ 53.077, -23.5599 ], [ 54.077, -23.5599 ], [ 55.077, -23.5599 ], [ 56.077, -23.5599 ], [ 57.077, -23.5599 ], [ 58.0772, -23.5599 ], [ 59.077, -23.5599 ], [ 60.0771, -23.5599 ], [ 61.077, -23.5599 ], [ 62.0769, -23.5599 ], [ 63.077, -23.5599 ], [ 64.077, -23.5599 ], [ 65.077, -23.5599 ], [ 66.0769, -23.5599 ], [ 67.0771, -23.5599 ], [ 68.077, -23.5599 ], [ 69.0771, -23.5599 ], [ 70.077, -23.5599 ], [ 71.077, -23.5599 ], [ 72.077, -23.5599 ], [ 73.0769, -23.5599 ], [ 74.0771, -23.5599 ], [ 75.0771, -23.5599 ], [ 76.077, -23.5599 ], [ 77.077, -23.5599 ], [ 78.077, -23.5599 ], [ 79.0769, -23.5599 ], [ 80.0771, -23.5599 ], [ 81.077, -23.5599 ], [ 82.0771, -23.5599 ], [ 83.0771, -23.5599 ], [ 84.077, -23.5599 ], [ 85.077, -23.5599 ], [ 86.0769, -23.5599 ], [ 87.077, -23.5599 ], [ 88.0769, -23.5599 ], [ 89.0771, -23.5599 ], [ 90.077, -23.5599 ], [ 91.0771, -23.5599 ], [ 92.077, -23.5599 ], [ 93.077, -23.5599 ], [ 94.077, -23.5599 ], [ 95.0769, -23.5599 ], [ 96.077, -23.5599 ], [ 97.077, -23.5599 ], [ 98.077, -23.5599 ], [ 99.077, -23.5599 ], [ 100.0771, -23.5599 ], [ 101.077, -23.5599 ], [ 102.0771, -23.5599 ], [ 103.0771, -23.5599 ], [ 104.0769, -23.5599 ], [ 105.077, -23.5599 ], [ 106.0769, -23.5599 ], [ 107.077, -23.5599 ], [ 108.077, -23.5599 ], [ 109.077, -23.5599 ], [ 110.0769, -23.5599 ], [ 111.0771, -23.5599 ], [ 112.077, -23.5599 ], [ 113.077, -23.5599 ], [ 114.077, -23.5599 ], [ 115.077, -23.5599 ], [ 116.077, -23.5599 ], [ 117.0769, -23.5599 ], [ 118.0771, -23.5599 ], [ 119.077, -23.5599 ], [ 120.0771, -23.5599 ], [ 121.077, -23.5599 ], [ 122.077, -23.5599 ], [ 123.0769, -23.5599 ], [ 124.0771, -23.5599 ], [ 125.077, -23.5599 ], [ 126.0769, -23.5599 ], [ 127.077, -23.5599 ], [ 128.077, -23.5599 ], [ 129.077, -23.5599 ], [ 130.0769, -23.5599 ], [ 131.077, -23.5599 ], [ 132.0769, -23.5599 ], [ 133.077, -23.5599 ], [ 134.077, -23.5599 ], [ 135.077, -23.5599 ], [ 136.077, -23.5599 ], [ 137.0769, -23.5599 ], [ 138.077, -23.5599 ], [ 139.0769, -23.5599 ], [ 140.0771, -23.5599 ], [ 141.077, -23.5599 ], [ 142.077, -23.5599 ], [ 143.077, -23.5599 ], [ 144.077, -23.5599 ], [ 145.077, -23.5599 ], [ 146.0772, -23.5599 ], [ 147.0769, -23.5599 ], [ 148.0769, -23.5599 ], [ 149.077, -23.5599 ], [ 150.077, -23.5599 ], [ 151.077, -23.5599 ], [ 152.077, -23.5599 ], [ 153.077, -23.5599 ], [ 154.0769, -23.5599 ], [ 155.0771, -23.5599 ], [ 156.077, -23.5599 ], [ 157.0771, -23.5599 ], [ 158.077, -23.5599 ], [ 159.077, -23.5599 ], [ 160.077, -23.5599 ], [ 161.0769, -23.5599 ], [ 162.0771, -23.5599 ], [ 163.0769, -23.5599 ], [ 164.077, -23.5599 ], [ 165.077, -23.5599 ], [ 166.077, -23.5599 ], [ 167.0769, -23.5599 ], [ 168.0769, -23.5599 ], [ 169.077, -23.5599 ], [ 170.0769, -23.5599 ], [ 171.0771, -23.5599 ], [ 172.0769, -23.5599 ], [ 173.077, -23.5599 ], [ 174.0769, -23.5599 ], [ 175.0769, -23.5599 ], [ 176.0769, -23.5599 ], [ 177.0771, -23.5599 ], [ 178.077, -23.5599 ], [ 179.017, -23.5599 ], [ 179.9997, -23.5599 ] ] } },
{ "type": "Feature", "properties": { "name": "Tropic of Cancer", "kind": "Circle of latitude" }, "geometry": { "type": "LineString", "coordinates": [ [ -180.0, 23.5 ], [ -178.9829, 23.5 ], [ -177.9829, 23.5 ], [ -176.9829, 23.5 ], [ -175.9829, 23.5 ], [ -174.9829, 23.5 ], [ -173.9829, 23.5 ], [ -172.9829, 23.5 ], [ -171.9828, 23.5 ], [ -170.983, 23.5 ], [ -169.9828, 23.5 ], [ -168.9829, 23.5 ], [ -167.9829, 23.5 ], [ -166.9829, 23.5 ], [ -165.9829, 23.5 ], [ -164.9829, 23.5 ], [ -163.9829, 23.5 ], [ -162.9828, 23.5 ], [ -161.983, 23.5 ], [ -160.9829, 23.5 ], [ -159.9829, 23.5 ], [ -158.9829, 23.5 ], [ -157.9829, 23.5 ], [ -156.9829, 23.5 ], [ -155.9829, 23.5 ], [ -154.9829, 23.5 ], [ -153.9829, 23.5 ], [ -152.983, 23.5 ], [ -151.9829, 23.5 ], [ -150.9829, 23.5 ], [ -149.9828, 23.5 ], [ -148.983, 23.5 ], [ -147.9829, 23.5 ], [ -146.9829, 23.5 ], [ -145.9829, 23.5 ], [ -144.9829, 23.5 ], [ -143.9829, 23.5 ], [ -142.9829, 23.5 ], [ -141.983, 23.5 ], [ -140.9829, 23.5 ], [ -139.983, 23.5 ], [ -138.9829, 23.5 ], [ -137.9829, 23.5 ], [ -136.9829, 23.5 ], [ -135.9829, 23.5 ], [ -134.9829, 23.5 ], [ -133.9829, 23.5 ], [ -132.9829, 23.5 ], [ -131.9829, 23.5 ], [ -130.983, 23.5 ], [ -129.9829, 23.5 ], [ -128.9829, 23.5 ], [ -127.9829, 23.5 ], [ -126.983, 23.5 ], [ -125.9829, 23.5 ], [ -124.9829, 23.5 ], [ -123.9829, 23.5 ], [ -122.9829, 23.5 ], [ -121.983, 23.5 ], [ -120.9829, 23.5 ], [ -119.9829, 23.5 ], [ -118.9829, 23.5 ], [ -117.983, 23.5 ], [ -116.9829, 23.5 ], [ -115.9829, 23.5 ], [ -114.9829, 23.5 ], [ -113.9829, 23.5 ], [ -112.9829, 23.5 ], [ -111.9829, 23.5 ], [ -110.983, 23.5 ], [ -109.9829, 23.5 ], [ -108.983, 23.5 ], [ -107.9829, 23.5 ], [ -106.9829, 23.5 ], [ -105.983, 23.5 ], [ -104.9829, 23.5 ], [ -103.9829, 23.5 ], [ -102.9829, 23.5 ], [ -101.9829, 23.5 ], [ -100.9829, 23.5 ], [ -99.983, 23.5 ], [ -98.9829, 23.5 ], [ -97.983, 23.5 ], [ -96.983, 23.5 ], [ -95.983, 23.5 ], [ -94.9829, 23.5 ], [ -93.9829, 23.5 ], [ -92.9829, 23.5 ], [ -91.9829, 23.5 ], [ -90.9829, 23.5 ], [ -89.9829, 23.5 ], [ -88.983, 23.5 ], [ -87.9829, 23.5 ], [ -86.983, 23.5 ], [ -85.9829, 23.5 ], [ -84.983, 23.5 ], [ -83.983, 23.5 ], [ -82.9829, 23.5 ], [ -81.9829, 23.5 ], [ -80.9829, 23.5 ], [ -79.983, 23.5 ], [ -78.9829, 23.5 ], [ -77.9829, 23.5 ], [ -76.9829, 23.5 ], [ -75.983, 23.5 ], [ -74.983, 23.5 ], [ -73.983, 23.5 ], [ -72.9829, 23.5 ], [ -71.9829, 23.5 ], [ -70.983, 23.5 ], [ -69.983, 23.5 ], [ -68.983, 23.5 ], [ -67.9829, 23.5 ], [ -66.983, 23.5 ], [ -65.9829, 23.5 ], [ -64.983, 23.5 ], [ -63.983, 23.5 ], [ -62.983, 23.5 ], [ -61.983, 23.5 ], [ -60.9829, 23.5 ], [ -59.9829, 23.5 ], [ -58.9829, 23.5 ], [ -57.983, 23.5 ], [ -56.9829, 23.5 ], [ -55.9829, 23.5 ], [ -54.983, 23.5 ], [ -53.983, 23.5 ], [ -52.983, 23.5 ], [ -51.983, 23.5 ], [ -50.9829, 23.5 ], [ -49.9829, 23.5 ], [ -48.9829, 23.5 ], [ -47.9829, 23.5 ], [ -46.983, 23.5 ], [ -45.9829, 23.5 ], [ -44.983, 23.5 ], [ -43.983, 23.5 ], [ -42.983, 23.5 ], [ -41.983, 23.5 ], [ -40.983, 23.5 ], [ -39.983, 23.5 ], [ -38.983, 23.5 ], [ -37.9829, 23.5 ], [ -36.9831, 23.5 ], [ -35.9829, 23.5 ], [ -34.983, 23.5 ], [ -33.9829, 23.5 ], [ -32.983, 23.5 ], [ -31.983, 23.5 ], [ -30.983, 23.5 ], [ -29.983, 23.5 ], [ -28.9829, 23.5 ], [ -27.983, 23.5 ], [ -26.983, 23.5 ], [ -25.983, 23.5 ], [ -24.9829, 23.5 ], [ -23.983, 23.5 ], [ -22.983, 23.5 ], [ -21.983, 23.5 ], [ -20.983, 23.5 ], [ -19.983, 23.5 ], [ -18.983, 23.5 ], [ -17.983, 23.5 ], [ -16.983, 23.5 ], [ -15.9829, 23.5 ], [ -14.983, 23.5 ], [ -13.983, 23.5 ], [ -12.983, 23.5 ], [ -11.983, 23.5 ], [ -10.983, 23.5 ], [ -9.983, 23.5 ], [ -8.983, 23.5 ], [ -7.983, 23.5 ], [ -6.983, 23.5 ], [ -5.983, 23.5 ], [ -4.9829, 23.5 ], [ -3.9831, 23.5 ], [ -2.9831, 23.5 ], [ -1.983, 23.5 ], [ -0.983, 23.5 ], [ 0.017, 23.5 ], [ 1.0171, 23.5 ], [ 2.0171, 23.5 ], [ 3.0172, 23.5 ], [ 4.0172, 23.5 ], [ 5.0171, 23.5 ], [ 6.0171, 23.5 ], [ 7.0171, 23.5 ], [ 8.0171, 23.5 ], [ 9.017, 23.5 ], [ 10.0172, 23.5 ], [ 11.017, 23.5 ], [ 12.0172, 23.5 ], [ 13.0172, 23.5 ], [ 14.0172, 23.5 ], [ 15.0171, 23.5 ], [ 16.017, 23.5 ], [ 17.017, 23.5 ], [ 18.017, 23.5 ], [ 19.0171, 23.5 ], [ 20.0171, 23.5 ], [ 21.0172, 23.5 ], [ 22.0171, 23.5 ], [ 23.0171, 23.5 ], [ 24.0171, 23.5 ], [ 25.0172, 23.5 ], [ 26.0171, 23.5 ], [ 27.017, 23.5 ], [ 28.0171, 23.5 ], [ 29.0171, 23.5 ], [ 30.0172, 23.5 ], [ 31.017, 23.5 ], [ 32.0172, 23.5 ], [ 33.017, 23.5 ], [ 34.0172, 23.5 ], [ 35.0171, 23.5 ], [ 36.0171, 23.5 ], [ 37.0171, 23.5 ], [ 38.0171, 23.5 ], [ 39.0171, 23.5 ], [ 40.017, 23.5 ], [ 41.0172, 23.5 ], [ 42.0171, 23.5 ], [ 43.0171, 23.5 ], [ 44.0171, 23.5 ], [ 45.0171, 23.5 ], [ 46.0171, 23.5 ], [ 47.017, 23.5 ], [ 48.0172, 23.5 ], [ 49.017, 23.5 ], [ 50.0172, 23.5 ], [ 51.017, 23.5 ], [ 52.0171, 23.5 ], [ 53.017, 23.5 ], [ 54.0171, 23.5 ], [ 55.0171, 23.5 ], [ 56.0172, 23.5 ], [ 57.0171, 23.5 ], [ 58.0171, 23.5 ], [ 59.0171, 23.5 ], [ 60.0171, 23.5 ], [ 61.0171, 23.5 ], [ 62.017, 23.5 ], [ 63.0171, 23.5 ], [ 64.0171, 23.5 ], [ 65.0172, 23.5 ], [ 66.0171, 23.5 ], [ 67.017, 23.5 ], [ 68.017, 23.5 ], [ 69.017, 23.5 ], [ 70.017, 23.5 ], [ 71.017, 23.5 ], [ 72.0171, 23.5 ], [ 73.0171, 23.5 ], [ 74.0171, 23.5 ], [ 75.0171, 23.5 ], [ 76.0171, 23.5 ], [ 77.017, 23.5 ], [ 78.017, 23.5 ], [ 79.0171, 23.5 ], [ 80.0171, 23.5 ], [ 81.0171, 23.5 ], [ 82.0171, 23.5 ], [ 83.0171, 23.5 ], [ 84.017, 23.5 ], [ 85.0172, 23.5 ], [ 86.017, 23.5 ], [ 87.0171, 23.5 ], [ 88.017, 23.5 ], [ 89.0171, 23.5 ], [ 90.0171, 23.5 ], [ 91.017, 23.5 ], [ 92.0171, 23.5 ], [ 93.017, 23.5 ], [ 94.0171, 23.5 ], [ 95.0171, 23.5 ], [ 96.0171, 23.5 ], [ 97.017, 23.5 ], [ 98.0171, 23.5 ], [ 99.017, 23.5 ], [ 100.017, 23.5 ], [ 101.0172, 23.5 ], [ 102.017, 23.5 ], [ 103.0171, 23.5 ], [ 104.017, 23.5 ], [ 105.017, 23.5 ], [ 106.0171, 23.5 ], [ 107.0171, 23.5 ], [ 108.0171, 23.5 ], [ 109.0169, 23.5 ], [ 110.0171, 23.5 ], [ 111.017, 23.5 ], [ 112.0171, 23.5 ], [ 113.017, 23.5 ], [ 114.017, 23.5 ], [ 115.017, 23.5 ], [ 116.0171, 23.5 ], [ 117.0171, 23.5 ], [ 118.0172, 23.5 ], [ 119.017, 23.5 ], [ 120.017, 23.5 ], [ 121.017, 23.5 ], [ 122.017, 23.5 ], [ 123.0171, 23.5 ], [ 124.0171, 23.5 ], [ 125.0171, 23.5 ], [ 126.0171, 23.5 ], [ 127.0171, 23.5 ], [ 128.017, 23.5 ], [ 129.0172, 23.5 ], [ 130.017, 23.5 ], [ 131.017, 23.5 ], [ 132.0171, 23.5 ], [ 133.017, 23.5 ], [ 134.0171, 23.5 ], [ 135.017, 23.5 ], [ 136.017, 23.5 ], [ 137.017, 23.5 ], [ 138.0172, 23.5 ], [ 139.017, 23.5 ], [ 140.0171, 23.5 ], [ 141.0171, 23.5 ], [ 142.017, 23.5 ], [ 143.0171, 23.5 ], [ 144.017, 23.5 ], [ 145.0171, 23.5 ], [ 146.0171, 23.5 ], [ 147.0171, 23.5 ], [ 148.017, 23.5 ], [ 149.0171, 23.5 ], [ 150.0171, 23.5 ], [ 151.0171, 23.5 ], [ 152.017, 23.5 ], [ 153.0169, 23.5 ], [ 154.0171, 23.5 ], [ 155.017, 23.5 ], [ 156.017, 23.5 ], [ 157.017, 23.5 ], [ 158.017, 23.5 ], [ 159.017, 23.5 ], [ 160.0171, 23.5 ], [ 161.0171, 23.5 ], [ 162.0171, 23.5 ], [ 163.0171, 23.5 ], [ 164.0169, 23.5 ], [ 165.017, 23.5 ], [ 166.017, 23.5 ], [ 167.0171, 23.5 ], [ 168.017, 23.5 ], [ 169.0171, 23.5 ], [ 170.017, 23.5 ], [ 171.0171, 23.5 ], [ 172.017, 23.5 ], [ 173.017, 23.5 ], [ 174.017, 23.5 ], [ 175.017, 23.5 ], [ 176.0171, 23.5 ], [ 177.0171, 23.5 ], [ 178.0171, 23.5 ], [ 178.957, 23.5 ], [ 179.9997, 23.5 ] ] } },
{ "type": "Feature", "properties": { "name": "Equator", "kind": "Circle of latitude" }, "geometry": { "type": "LineString", "coordinates": [ [ -180.0, 0.0 ], [ -180.0, 0.0 ], [ -179.0, 0.0 ], [ -178.0, 0.0 ], [ -177.0, 0.0 ], [ -175.9999, 0.0 ], [ -175.0, 0.0 ], [ -174.0, 0.0 ], [ -173.0, 0.0 ], [ -172.0, 0.0 ], [ -171.0, 0.0 ], [ -169.9999, 0.0 ], [ -169.0, 0.0 ], [ -168.0, 0.0 ], [ -167.0, 0.0 ], [ -166.0, 0.0 ], [ -165.0, 0.0 ], [ -163.9999, 0.0 ], [ -163.0, 0.0 ], [ -162.0, 0.0 ], [ -161.0002, 0.0 ], [ -161.0, 0.0 ], [ -160.0, 0.0 ], [ -159.0002, 0.0 ], [ -159.0, 0.0 ], [ -158.0, 0.0 ], [ -157.0, 0.0 ], [ -156.0, 0.0 ], [ -155.0, 0.0 ], [ -153.9999, 0.0 ], [ -153.6925, 0.0 ], [ -153.0, 0.0 ], [ -152.0, 0.0 ], [ -151.0, 0.0 ], [ -150.0, 0.0 ], [ -149.0, 0.0 ], [ -148.0, 0.0 ], [ -147.0, 0.0 ], [ -146.0, 0.0 ], [ -145.0, 0.0 ], [ -144.0, 0.0 ], [ -143.0, 0.0 ], [ -142.0, 0.0 ], [ -141.0, 0.0 ], [ -140.0, 0.0 ], [ -139.0, 0.0 ], [ -138.0, 0.0 ], [ -137.0, 0.0 ], [ -136.0, 0.0 ], [ -135.0, 0.0 ], [ -134.0, 0.0 ], [ -133.0, 0.0 ], [ -132.0, 0.0 ], [ -131.0, 0.0 ], [ -130.0, 0.0 ], [ -129.0, 0.0 ], [ -128.0, 0.0 ], [ -127.0, 0.0 ], [ -126.0, 0.0 ], [ -125.0, 0.0 ], [ -124.0, 0.0 ], [ -123.0, 0.0 ], [ -122.0, 0.0 ], [ -121.0, 0.0 ], [ -120.0, 0.0 ], [ -119.0, 0.0 ], [ -118.0, 0.0 ], [ -117.0, 0.0 ], [ -116.0, 0.0 ], [ -115.0, 0.0 ], [ -114.0, 0.0 ], [ -113.0, 0.0 ], [ -111.9999, 0.0 ], [ -111.0, 0.0 ], [ -110.0, 0.0 ], [ -109.0, 0.0 ], [ -108.0, 0.0 ], [ -107.0, 0.0 ], [ -106.0, 0.0 ], [ -105.0, 0.0 ], [ -104.0, 0.0 ], [ -103.0, 0.0 ], [ -102.0, 0.0 ], [ -101.0, 0.0 ], [ -100.0, 0.0 ], [ -99.0, 0.0 ], [ -98.0, 0.0 ], [ -97.0001, 0.0 ], [ -96.0, 0.0 ], [ -95.0, 0.0 ], [ -94.0, 0.0 ], [ -93.0, 0.0 ], [ -92.0, 0.0 ], [ -91.0, 0.0 ], [ -90.0, 0.0 ], [ -89.0, 0.0 ], [ -88.0, 0.0 ], [ -87.0, 0.0 ], [ -86.0, 0.0 ], [ -85.0, 0.0 ], [ -84.0, 0.0 ], [ -83.0, 0.0 ], [ -82.0, 0.0 ], [ -81.0, 0.0 ], [ -80.0, 0.0 ], [ -79.0, 0.0 ], [ -78.0, 0.0 ], [ -77.0, 0.0 ], [ -76.0001, 0.0 ], [ -75.0001, 0.0 ], [ -74.0, 0.0 ], [ -73.0, 0.0 ], [ -72.0, 0.0 ], [ -71.0, 0.0 ], [ -70.0, 0.0 ], [ -69.0001, 0.0 ], [ -68.0, 0.0 ], [ -67.0, 0.0 ], [ -66.0, 0.0 ], [ -65.0001, 0.0 ], [ -64.0, 0.0 ], [ -63.0, 0.0 ], [ -62.0001, 0.0 ], [ -61.0, 0.0 ], [ -60.0, 0.0 ], [ -59.0, 0.0 ], [ -58.0001, 0.0 ], [ -57.0, 0.0 ], [ -56.0, 0.0 ], [ -55.0001, 0.0 ], [ -54.0001, 0.0 ], [ -53.0001, 0.0 ], [ -52.0, 0.0 ], [ -51.0, 0.0 ], [ -50.0, 0.0 ], [ -49.0, 0.0 ], [ -48.0, 0.0 ], [ -47.0, 0.0 ], [ -46.0, 0.0 ], [ -45.0001, 0.0 ], [ -44.0, 0.0 ], [ -43.0, 0.0 ], [ -42.0, 0.0 ], [ -41.0, 0.0 ], [ -40.0, 0.0 ], [ -39.0, 0.0 ], [ -38.0001, 0.0 ], [ -37.0001, 0.0 ], [ -36.0001, 0.0 ], [ -35.0, 0.0 ], [ -34.0001, 0.0 ], [ -33.0001, 0.0 ], [ -32.0001, 0.0 ], [ -31.0001, 0.0 ], [ -30.0001, 0.0 ], [ -29.0, 0.0 ], [ -28.0001, 0.0 ], [ -27.0001, 0.0 ], [ -26.0, 0.0 ], [ -25.0, 0.0 ], [ -24.0, 0.0 ], [ -23.0001, 0.0 ], [ -22.0001, 0.0 ], [ -21.0001, 0.0 ], [ -20.0, 0.0 ], [ -19.0001, 0.0 ], [ -18.0001, 0.0 ], [ -17.0, 0.0 ], [ -16.0001, 0.0 ], [ -15.0001, 0.0 ], [ -14.0001, 0.0 ], [ -13.0, 0.0 ], [ -12.0001, 0.0 ], [ -11.0001, 0.0 ], [ -10.0001, 0.0 ], [ -9.0, 0.0 ], [ -8.0, 0.0 ], [ -7.0, 0.0 ], [ -6.0001, 0.0 ], [ -5.0, 0.0 ], [ -4.0002, 0.0 ], [ -3.0, 0.0 ], [ -2.0001, 0.0 ], [ -1.0001, 0.0 ], [ -0.0002, 0.0 ], [ 1.0, 0.0 ], [ 1.9999, 0.0 ], [ 3.0, 0.0 ], [ 3.9999, 0.0 ], [ 4.9998, 0.0 ], [ 5.9998, 0.0 ], [ 6.9999, 0.0 ], [ 7.9999, 0.0 ], [ 8.9998, 0.0 ], [ 10.0, 0.0 ], [ 10.9999, 0.0 ], [ 11.9999, 0.0 ], [ 12.9998, 0.0 ], [ 14.0, 0.0 ], [ 14.9998, 0.0 ], [ 15.9998, 0.0 ], [ 16.9999, 0.0 ], [ 17.9999, 0.0 ], [ 18.9999, 0.0 ], [ 19.9998, 0.0 ], [ 20.9999, 0.0 ], [ 21.9998, 0.0 ], [ 23.0, 0.0 ], [ 23.9999, 0.0 ], [ 25.0, 0.0 ], [ 25.9999, 0.0 ], [ 26.9999, 0.0 ], [ 27.9999, 0.0 ], [ 28.9998, 0.0 ], [ 30.0, 0.0 ], [ 30.9998, 0.0 ], [ 31.9999, 0.0 ], [ 32.9999, 0.0 ], [ 33.9999, 0.0 ], [ 34.9999, 0.0 ], [ 35.9998, 0.0 ], [ 36.9998, 0.0 ], [ 37.9998, 0.0 ], [ 38.9999, 0.0 ], [ 39.9998, 0.0 ], [ 40.9999, 0.0 ], [ 41.9999, 0.0 ], [ 42.9999, 0.0 ], [ 43.9999, 0.0 ], [ 45.0, 0.0 ], [ 45.9999, 0.0 ], [ 46.9997, 0.0 ], [ 47.9999, 0.0 ], [ 48.9998, 0.0 ], [ 49.9998, 0.0 ], [ 50.9998, 0.0 ], [ 51.9999, 0.0 ], [ 52.9998, 0.0 ], [ 54.0, 0.0 ], [ 54.9999, 0.0 ], [ 55.9998, 0.0 ], [ 56.9998, 0.0 ], [ 57.9998, 0.0 ], [ 58.9999, 0.0 ], [ 59.9998, 0.0 ], [ 61.0, 0.0 ], [ 61.9999, 0.0 ], [ 62.9999, 0.0 ], [ 63.9998, 0.0 ], [ 64.9999, 0.0 ], [ 65.9998, 0.0 ], [ 66.9998, 0.0 ], [ 67.9999, 0.0 ], [ 68.9998, 0.0 ], [ 69.9999, 0.0 ], [ 70.9998, 0.0 ], [ 71.9999, 0.0 ], [ 72.9998, 0.0 ], [ 73.9998, 0.0 ], [ 74.9998, 0.0 ], [ 75.9999, 0.0 ], [ 76.9999, 0.0 ], [ 77.9999, 0.0 ], [ 78.9999, 0.0 ], [ 79.9998, 0.0 ], [ 80.9999, 0.0 ], [ 81.9997, 0.0 ], [ 82.9999, 0.0 ], [ 83.9998, 0.0 ], [ 84.9999, 0.0 ], [ 85.9999, 0.0 ], [ 86.9999, 0.0 ], [ 87.9998, 0.0 ], [ 88.9998, 0.0 ], [ 89.9998, 0.0 ], [ 90.9997, 0.0 ], [ 91.9999, 0.0 ], [ 92.9998, 0.0 ], [ 93.9999, 0.0 ], [ 94.9999, 0.0 ], [ 96.0, 0.0 ], [ 96.9998, 0.0 ], [ 98.0, 0.0 ], [ 98.9999, 0.0 ], [ 99.9998, 0.0 ], [ 100.9998, 0.0 ], [ 101.9998, 0.0 ], [ 102.9999, 0.0 ], [ 103.9998, 0.0 ], [ 105.0, 0.0 ], [ 105.9999, 0.0 ], [ 106.9999, 0.0 ], [ 107.9998, 0.0 ], [ 108.9998, 0.0 ], [ 109.9998, 0.0 ], [ 110.9998, 0.0 ], [ 111.9999, 0.0 ], [ 112.9997, 0.0 ], [ 113.9999, 0.0 ], [ 114.9999, 0.0 ], [ 115.9999, 0.0 ], [ 116.9998, 0.0 ], [ 117.9998, 0.0 ], [ 118.9998, 0.0 ], [ 119.9998, 0.0 ], [ 120.9999, 0.0 ], [ 121.9998, 0.0 ], [ 122.9999, 0.0 ], [ 123.9998, 0.0 ], [ 124.9998, 0.0 ], [ 125.9998, 0.0 ], [ 126.9999, 0.0 ], [ 127.9998, 0.0 ], [ 128.9999, 0.0 ], [ 129.9999, 0.0 ], [ 130.9998, 0.0 ], [ 131.9999, 0.0 ], [ 132.9997, 0.0 ], [ 133.9998, 0.0 ], [ 134.9997, 0.0 ], [ 135.9999, 0.0 ], [ 136.9998, 0.0 ], [ 137.9999, 0.0 ], [ 138.9998, 0.0 ], [ 139.9999, 0.0 ], [ 140.9998, 0.0 ], [ 141.9997, 0.0 ], [ 142.9999, 0.0 ], [ 143.9998, 0.0 ], [ 144.9998, 0.0 ], [ 145.9998, 0.0 ], [ 146.9999, 0.0 ], [ 147.9998, 0.0 ], [ 149.0, 0.0 ], [ 149.9997, 0.0 ], [ 150.9999, 0.0 ], [ 151.9998, 0.0 ], [ 152.9997, 0.0 ], [ 153.9998, 0.0 ], [ 154.9998, 0.0 ], [ 155.9998, 0.0 ], [ 156.9998, 0.0 ], [ 157.9999, 0.0 ], [ 158.9998, 0.0 ], [ 159.9999, 0.0 ], [ 160.9998, 0.0 ], [ 161.9998, 0.0 ], [ 162.9998, 0.0 ], [ 163.9997, 0.0 ], [ 164.9999, 0.0 ], [ 165.9997, 0.0 ], [ 166.9999, 0.0 ], [ 167.9998, 0.0 ], [ 168.9999, 0.0 ], [ 169.9997, 0.0 ], [ 170.9999, 0.0 ], [ 171.9998, 0.0 ], [ 172.9997, 0.0 ], [ 173.9999, 0.0 ], [ 174.9998, 0.0 ], [ 175.9998, 0.0 ], [ 176.9998, 0.0 ], [ 177.9998, 0.0 ], [ 178.9997, 0.0 ], [ 179.9997, 0.0 ] ] } },
{ "type": "Feature", "properties": { "name": "Arctic Circle", "kind": "Circle of latitude" }, "geometry": { "type": "LineString", "coordinates": [ [ 180.0, 66.55 ], [ 178.9629, 66.55 ], [ 178.0228, 66.55 ], [ 177.0228, 66.55 ], [ 176.0227, 66.55 ], [ 175.0227, 66.55 ], [ 174.0228, 66.55 ], [ 173.0227, 66.55 ], [ 172.0228, 66.55 ], [ 171.0229, 66.55 ], [ 170.0227, 66.55 ], [ 169.0228, 66.55 ], [ 168.0228, 66.55 ], [ 167.0228, 66.55 ], [ 166.0228, 66.55 ], [ 165.0228, 66.55 ], [ 164.0226, 66.55 ], [ 163.0228, 66.55 ], [ 162.0229, 66.55 ], [ 161.0228, 66.55 ], [ 160.0228, 66.55 ], [ 159.0228, 66.55 ], [ 158.0228, 66.55 ], [ 157.0228, 66.55 ], [ 156.0229, 66.55 ], [ 155.0227, 66.55 ], [ 154.0228, 66.55 ], [ 153.0227, 66.55 ], [ 152.0228, 66.55 ], [ 151.0228, 66.55 ], [ 150.0228, 66.55 ], [ 149.0228, 66.55 ], [ 148.0227, 66.55 ], [ 147.0228, 66.55 ], [ 146.0228, 66.55 ], [ 145.0228, 66.55 ], [ 144.0228, 66.55 ], [ 143.0228, 66.55 ], [ 142.0227, 66.55 ], [ 141.0228, 66.55 ], [ 140.0229, 66.55 ], [ 139.0227, 66.55 ], [ 138.0228, 66.55 ], [ 137.0228, 66.55 ], [ 136.0229, 66.55 ], [ 135.0228, 66.55 ], [ 134.0228, 66.55 ], [ 133.0227, 66.55 ], [ 132.0227, 66.55 ], [ 131.0227, 66.55 ], [ 130.0228, 66.55 ], [ 129.0229, 66.55 ], [ 128.0228, 66.55 ], [ 127.0229, 66.55 ], [ 126.0228, 66.55 ], [ 125.0229, 66.55 ], [ 124.0228, 66.55 ], [ 123.0228, 66.55 ], [ 122.0227, 66.55 ], [ 121.0228, 66.55 ], [ 120.0227, 66.55 ], [ 119.0229, 66.55 ], [ 118.0229, 66.55 ], [ 117.0228, 66.55 ], [ 116.0228, 66.55 ], [ 115.0228, 66.55 ], [ 114.0228, 66.55 ], [ 113.0228, 66.55 ], [ 112.0229, 66.55 ], [ 111.0227, 66.55 ], [ 110.0228, 66.55 ], [ 109.0228, 66.55 ], [ 108.0228, 66.55 ], [ 107.0228, 66.55 ], [ 106.0228, 66.55 ], [ 105.0229, 66.55 ], [ 104.0227, 66.55 ], [ 103.0229, 66.55 ], [ 102.0227, 66.55 ], [ 101.0228, 66.55 ], [ 100.0228, 66.55 ], [ 99.0228, 66.55 ], [ 98.0228, 66.55 ], [ 97.0228, 66.55 ], [ 96.0229, 66.55 ], [ 95.0228, 66.55 ], [ 94.0228, 66.55 ], [ 93.0228, 66.55 ], [ 92.0229, 66.55 ], [ 91.0228, 66.55 ], [ 90.0228, 66.55 ], [ 89.0228, 66.55 ], [ 88.0227, 66.55 ], [ 87.0228, 66.55 ], [ 86.0228, 66.55 ], [ 85.0229, 66.55 ], [ 84.0228, 66.55 ], [ 83.0229, 66.55 ], [ 82.0227, 66.55 ], [ 81.0228, 66.55 ], [ 80.0228, 66.55 ], [ 79.0228, 66.55 ], [ 78.0227, 66.55 ], [ 77.0228, 66.55 ], [ 76.0229, 66.55 ], [ 75.0229, 66.55 ], [ 74.0229, 66.55 ], [ 73.0228, 66.55 ], [ 72.0228, 66.55 ], [ 71.0227, 66.55 ], [ 70.0228, 66.55 ], [ 69.0228, 66.55 ], [ 68.0229, 66.55 ], [ 67.0227, 66.55 ], [ 66.0227, 66.55 ], [ 65.0229, 66.55 ], [ 64.0228, 66.55 ], [ 63.0228, 66.55 ], [ 62.0228, 66.55 ], [ 61.0228, 66.55 ], [ 60.0227, 66.55 ], [ 59.0229, 66.55 ], [ 58.0228, 66.55 ], [ 57.0229, 66.55 ], [ 56.0229, 66.55 ], [ 55.0228, 66.55 ], [ 54.0229, 66.55 ], [ 53.0228, 66.55 ], [ 52.0229, 66.55 ], [ 51.0227, 66.55 ], [ 50.0228, 66.55 ], [ 49.0228, 66.55 ], [ 48.0229, 66.55 ], [ 47.0228, 66.55 ], [ 46.0228, 66.55 ], [ 45.0229, 66.55 ], [ 44.0227, 66.55 ], [ 43.023, 66.55 ], [ 42.0228, 66.55 ], [ 41.0229, 66.55 ], [ 40.0228, 66.55 ], [ 39.0228, 66.55 ], [ 38.0228, 66.55 ], [ 37.0229, 66.55 ], [ 36.0227, 66.55 ], [ 35.0229, 66.55 ], [ 34.0229, 66.55 ], [ 33.0228, 66.55 ], [ 32.0229, 66.55 ], [ 31.0229, 66.55 ], [ 30.0229, 66.55 ], [ 29.0228, 66.55 ], [ 28.0228, 66.55 ], [ 27.0227, 66.55 ], [ 26.0228, 66.55 ], [ 25.0229, 66.55 ], [ 24.0229, 66.55 ], [ 23.023, 66.55 ], [ 22.0228, 66.55 ], [ 21.0229, 66.55 ], [ 20.0228, 66.55 ], [ 19.0228, 66.55 ], [ 18.0228, 66.55 ], [ 17.0229, 66.55 ], [ 16.0228, 66.55 ], [ 15.0229, 66.55 ], [ 14.023, 66.55 ], [ 13.0228, 66.55 ], [ 12.0229, 66.55 ], [ 11.0228, 66.55 ], [ 10.0228, 66.55 ], [ 9.0228, 66.55 ], [ 8.0229, 66.55 ], [ 7.0228, 66.55 ], [ 6.0228, 66.55 ], [ 5.0228, 66.55 ], [ 4.0229, 66.55 ], [ 3.0229, 66.55 ], [ 2.0228, 66.55 ], [ 1.0229, 66.55 ], [ 0.0228, 66.55 ], [ -0.9774, 66.55 ], [ -1.9774, 66.55 ], [ -2.9773, 66.55 ], [ -3.9773, 66.55 ], [ -4.9773, 66.55 ], [ -5.9773, 66.55 ], [ -6.9772, 66.55 ], [ -7.9773, 66.55 ], [ -8.9773, 66.55 ], [ -9.9773, 66.55 ], [ -10.9773, 66.55 ], [ -11.9773, 66.55 ], [ -12.9773, 66.55 ], [ -13.9773, 66.55 ], [ -14.9774, 66.55 ], [ -15.9772, 66.55 ], [ -16.9773, 66.55 ], [ -17.9773, 66.55 ], [ -18.9773, 66.55 ], [ -19.9772, 66.55 ], [ -20.9773, 66.55 ], [ -21.9773, 66.55 ], [ -22.9773, 66.55 ], [ -23.9773, 66.55 ], [ -24.9772, 66.55 ], [ -25.9773, 66.55 ], [ -26.9772, 66.55 ], [ -27.9773, 66.55 ], [ -28.9773, 66.55 ], [ -29.9773, 66.55 ], [ -30.9773, 66.55 ], [ -31.9773, 66.55 ], [ -32.9773, 66.55 ], [ -33.9773, 66.55 ], [ -34.9773, 66.55 ], [ -35.9772, 66.55 ], [ -36.9773, 66.55 ], [ -37.9772, 66.55 ], [ -38.9773, 66.55 ], [ -39.9773, 66.55 ], [ -40.9773, 66.55 ], [ -41.9772, 66.55 ], [ -42.9773, 66.55 ], [ -43.9773, 66.55 ], [ -44.9773, 66.55 ], [ -45.9772, 66.55 ], [ -46.9773, 66.55 ], [ -47.9772, 66.55 ], [ -48.9772, 66.55 ], [ -49.9772, 66.55 ], [ -50.9772, 66.55 ], [ -51.9773, 66.55 ], [ -52.9773, 66.55 ], [ -53.9773, 66.55 ], [ -54.9773, 66.55 ], [ -55.9773, 66.55 ], [ -56.9772, 66.55 ], [ -57.9773, 66.55 ], [ -58.9772, 66.55 ], [ -59.9772, 66.55 ], [ -60.9773, 66.55 ], [ -61.9773, 66.55 ], [ -62.9773, 66.55 ], [ -63.9772, 66.55 ], [ -64.9773, 66.55 ], [ -65.9772, 66.55 ], [ -66.9773, 66.55 ], [ -67.9772, 66.55 ], [ -68.9773, 66.55 ], [ -69.9772, 66.55 ], [ -70.9772, 66.55 ], [ -71.9773, 66.55 ], [ -72.9773, 66.55 ], [ -73.9773, 66.55 ], [ -74.9773, 66.55 ], [ -75.9773, 66.55 ], [ -76.9772, 66.55 ], [ -77.9773, 66.55 ], [ -78.9772, 66.55 ], [ -79.9773, 66.55 ], [ -80.9772, 66.55 ], [ -81.9772, 66.55 ], [ -82.9773, 66.55 ], [ -83.9772, 66.55 ], [ -84.9772, 66.55 ], [ -85.9773, 66.55 ], [ -86.9773, 66.55 ], [ -87.9772, 66.55 ], [ -88.9773, 66.55 ], [ -89.9772, 66.55 ], [ -90.9772, 66.55 ], [ -91.9772, 66.55 ], [ -92.9772, 66.55 ], [ -93.9772, 66.55 ], [ -94.9773, 66.55 ], [ -95.9773, 66.55 ], [ -96.9773, 66.55 ], [ -97.9773, 66.55 ], [ -98.9772, 66.55 ], [ -99.9773, 66.55 ], [ -100.9772, 66.55 ], [ -101.9772, 66.55 ], [ -102.9772, 66.55 ], [ -103.9773, 66.55 ], [ -104.9772, 66.55 ], [ -105.9773, 66.55 ], [ -106.9772, 66.55 ], [ -107.9772, 66.55 ], [ -108.9773, 66.55 ], [ -109.9772, 66.55 ], [ -110.9773, 66.55 ], [ -111.9772, 66.55 ], [ -112.9773, 66.55 ], [ -113.9772, 66.55 ], [ -114.9772, 66.55 ], [ -115.9772, 66.55 ], [ -116.9773, 66.55 ], [ -117.9772, 66.55 ], [ -118.9771, 66.55 ], [ -119.9773, 66.55 ], [ -120.9772, 66.55 ], [ -121.9772, 66.55 ], [ -122.9772, 66.55 ], [ -123.9772, 66.55 ], [ -124.9772, 66.55 ], [ -125.9772, 66.55 ], [ -126.9772, 66.55 ], [ -127.9773, 66.55 ], [ -128.9772, 66.55 ], [ -129.9772, 66.55 ], [ -130.9773, 66.55 ], [ -131.9772, 66.55 ], [ -132.9772, 66.55 ], [ -133.9772, 66.55 ], [ -134.9772, 66.55 ], [ -135.9772, 66.55 ], [ -136.9772, 66.55 ], [ -137.9772, 66.55 ], [ -138.9773, 66.55 ], [ -139.9773, 66.55 ], [ -140.9772, 66.55 ], [ -141.9773, 66.55 ], [ -142.9772, 66.55 ], [ -143.9772, 66.55 ], [ -144.9772, 66.55 ], [ -145.9772, 66.55 ], [ -146.9772, 66.55 ], [ -147.9772, 66.55 ], [ -148.9772, 66.55 ], [ -149.9772, 66.55 ], [ -150.9772, 66.55 ], [ -151.9772, 66.55 ], [ -152.9773, 66.55 ], [ -153.9772, 66.55 ], [ -154.9772, 66.55 ], [ -155.9772, 66.55 ], [ -156.9772, 66.55 ], [ -157.9772, 66.55 ], [ -158.9772, 66.55 ], [ -159.9772, 66.55 ], [ -160.9772, 66.55 ], [ -161.9772, 66.55 ], [ -162.9772, 66.55 ], [ -163.9772, 66.55 ], [ -164.9772, 66.55 ], [ -165.9772, 66.55 ], [ -166.9772, 66.55 ], [ -167.9772, 66.55 ], [ -168.9738, 66.55 ], [ -168.9772, 66.55 ], [ -169.9771, 66.55 ], [ -170.9772, 66.55 ], [ -171.9772, 66.55 ], [ -172.9772, 66.55 ], [ -173.9772, 66.55 ], [ -174.9772, 66.55 ], [ -175.9772, 66.55 ], [ -176.9772, 66.55 ], [ -177.9772, 66.55 ], [ -178.9772, 66.55 ], [ -180.0, 66.55 ] ] } },
{ "type": "Feature", "properties": { "name": "Antarctic Circle", "kind": "Circle of latitude" }, "geometry": { "type": "LineString", "coordinates": [ [ 179.9997, -66.5499 ], [ 178.9629, -66.5499 ], [ 178.0228, -66.5499 ], [ 177.0228, -66.5499 ], [ 176.0227, -66.5499 ], [ 175.0227, -66.5499 ], [ 174.0228, -66.5499 ], [ 173.0227, -66.5499 ], [ 172.0228, -66.5499 ], [ 171.0229, -66.5499 ], [ 170.0227, -66.5499 ], [ 169.0228, -66.5499 ], [ 168.0228, -66.5499 ], [ 167.0228, -66.5499 ], [ 166.0228, -66.5499 ], [ 165.0228, -66.5499 ], [ 164.0226, -66.5499 ], [ 163.0228, -66.5499 ], [ 162.0229, -66.5499 ], [ 161.0228, -66.5499 ], [ 160.0228, -66.5499 ], [ 159.0228, -66.5499 ], [ 158.0228, -66.5499 ], [ 157.0228, -66.5499 ], [ 156.0229, -66.5499 ], [ 155.0227, -66.5499 ], [ 154.0228, -66.5499 ], [ 153.0227, -66.5499 ], [ 152.0228, -66.5499 ], [ 151.0228, -66.5499 ], [ 150.0228, -66.5499 ], [ 149.0228, -66.5499 ], [ 148.0227, -66.5499 ], [ 147.0228, -66.5499 ], [ 146.0228, -66.5499 ], [ 145.0228, -66.5499 ], [ 144.0228, -66.5499 ], [ 143.0228, -66.5499 ], [ 142.0227, -66.5499 ], [ 141.0228, -66.5499 ], [ 140.0229, -66.5499 ], [ 139.0227, -66.5499 ], [ 138.0228, -66.5499 ], [ 137.0228, -66.5499 ], [ 136.0229, -66.5499 ], [ 135.0228, -66.5499 ], [ 134.0228, -66.5499 ], [ 133.0227, -66.5499 ], [ 132.0227, -66.5499 ], [ 131.0227, -66.5499 ], [ 130.0228, -66.5499 ], [ 129.0229, -66.5499 ], [ 128.0228, -66.5499 ], [ 127.0229, -66.5499 ], [ 126.0228, -66.5499 ], [ 125.0229, -66.5499 ], [ 124.0228, -66.5499 ], [ 123.0228, -66.5499 ], [ 122.0227, -66.5499 ], [ 121.0228, -66.5499 ], [ 120.0227, -66.5499 ], [ 119.0229, -66.5499 ], [ 118.0229, -66.5499 ], [ 117.0228, -66.5499 ], [ 116.0228, -66.5499 ], [ 115.0228, -66.5499 ], [ 114.0228, -66.5499 ], [ 113.0228, -66.5499 ], [ 112.0229, -66.5499 ], [ 111.0227, -66.5499 ], [ 110.0228, -66.5499 ], [ 109.0228, -66.5499 ], [ 108.0228, -66.5499 ], [ 107.0228, -66.5499 ], [ 106.0228, -66.5499 ], [ 105.0229, -66.5499 ], [ 104.0227, -66.5499 ], [ 103.0229, -66.5499 ], [ 102.0227, -66.5499 ], [ 101.0228, -66.5499 ], [ 100.0228, -66.5499 ], [ 99.0228, -66.5499 ], [ 98.0228, -66.5499 ], [ 97.0228, -66.5499 ], [ 96.0229, -66.5499 ], [ 95.0228, -66.5499 ], [ 94.0228, -66.5499 ], [ 93.0228, -66.5499 ], [ 92.0229, -66.5499 ], [ 91.0228, -66.5499 ], [ 90.0228, -66.5499 ], [ 89.0228, -66.5499 ], [ 88.0227, -66.5499 ], [ 87.0228, -66.5499 ], [ 86.0228, -66.5499 ], [ 85.0229, -66.5499 ], [ 84.0228, -66.5499 ], [ 83.0229, -66.5499 ], [ 82.0227, -66.5499 ], [ 81.0228, -66.5499 ], [ 80.0228, -66.5499 ], [ 79.0228, -66.5499 ], [ 78.0227, -66.5499 ], [ 77.0228, -66.5499 ], [ 76.0229, -66.5499 ], [ 75.0229, -66.5499 ], [ 74.0229, -66.5499 ], [ 73.0228, -66.5499 ], [ 72.0228, -66.5499 ], [ 71.0227, -66.5499 ], [ 70.0228, -66.5499 ], [ 69.0228, -66.5499 ], [ 68.0229, -66.5499 ], [ 67.0227, -66.5499 ], [ 66.0227, -66.5499 ], [ 65.0229, -66.5499 ], [ 64.0228, -66.5499 ], [ 63.0228, -66.5499 ], [ 62.0228, -66.5499 ], [ 61.0228, -66.5499 ], [ 60.0227, -66.5499 ], [ 59.0229, -66.5499 ], [ 58.0228, -66.5499 ], [ 57.0229, -66.5499 ], [ 56.0229, -66.5499 ], [ 55.0228, -66.5499 ], [ 54.0229, -66.5499 ], [ 53.0228, -66.5499 ], [ 52.0229, -66.5499 ], [ 51.0227, -66.5499 ], [ 50.0228, -66.5499 ], [ 49.0228, -66.5499 ], [ 48.0229, -66.5499 ], [ 47.0228, -66.5499 ], [ 46.0228, -66.5499 ], [ 45.0229, -66.5499 ], [ 44.0227, -66.5499 ], [ 43.023, -66.5499 ], [ 42.0228, -66.5499 ], [ 41.0229, -66.5499 ], [ 40.0228, -66.5499 ], [ 39.0228, -66.5499 ], [ 38.0228, -66.5499 ], [ 37.0229, -66.5499 ], [ 36.0227, -66.5499 ], [ 35.0229, -66.5499 ], [ 34.0229, -66.5499 ], [ 33.0228, -66.5499 ], [ 32.0229, -66.5499 ], [ 31.0229, -66.5499 ], [ 30.0229, -66.5499 ], [ 29.0228, -66.5499 ], [ 28.0228, -66.5499 ], [ 27.0227, -66.5499 ], [ 26.0228, -66.5499 ], [ 25.0229, -66.5499 ], [ 24.0229, -66.5499 ], [ 23.023, -66.5499 ], [ 22.0228, -66.5499 ], [ 21.0229, -66.5499 ], [ 20.0228, -66.5499 ], [ 19.0228, -66.5499 ], [ 18.0228, -66.5499 ], [ 17.0229, -66.5499 ], [ 16.0228, -66.5499 ], [ 15.0229, -66.5499 ], [ 14.023, -66.5499 ], [ 13.0228, -66.5499 ], [ 12.0229, -66.5499 ], [ 11.0228, -66.5499 ], [ 10.0228, -66.5499 ], [ 9.0228, -66.5499 ], [ 8.0229, -66.5499 ], [ 7.0228, -66.5499 ], [ 6.0228, -66.5499 ], [ 5.0228, -66.5499 ], [ 4.0229, -66.5499 ], [ 3.0229, -66.5499 ], [ 2.0228, -66.5499 ], [ 1.0229, -66.5499 ], [ 0.0228, -66.5499 ], [ -0.9774, -66.5499 ], [ -1.9774, -66.5499 ], [ -2.9773, -66.5499 ], [ -3.9773, -66.5499 ], [ -4.9773, -66.5499 ], [ -5.9773, -66.5499 ], [ -6.9772, -66.5499 ], [ -7.9773, -66.5499 ], [ -8.9773, -66.5499 ], [ -9.9773, -66.5499 ], [ -10.9773, -66.5499 ], [ -11.9773, -66.5499 ], [ -12.9773, -66.5499 ], [ -13.9773, -66.5499 ], [ -14.9774, -66.5499 ], [ -15.9772, -66.5499 ], [ -16.9773, -66.5499 ], [ -17.9773, -66.5499 ], [ -18.9773, -66.5499 ], [ -19.9772, -66.5499 ], [ -20.9773, -66.5499 ], [ -21.9773, -66.5499 ], [ -22.9773, -66.5499 ], [ -23.9773, -66.5499 ], [ -24.9772, -66.5499 ], [ -25.9773, -66.5499 ], [ -26.9772, -66.5499 ], [ -27.9773, -66.5499 ], [ -28.9773, -66.5499 ], [ -29.9773, -66.5499 ], [ -30.9773, -66.5499 ], [ -31.9773, -66.5499 ], [ -32.9773, -66.5499 ], [ -33.9773, -66.5499 ], [ -34.9773, -66.5499 ], [ -35.9772, -66.5499 ], [ -36.9773, -66.5499 ], [ -37.9772, -66.5499 ], [ -38.9773, -66.5499 ], [ -39.9773, -66.5499 ], [ -40.9773, -66.5499 ], [ -41.9772, -66.5499 ], [ -42.9773, -66.5499 ], [ -43.9773, -66.5499 ], [ -44.9773, -66.5499 ], [ -45.9772, -66.5499 ], [ -46.9773, -66.5499 ], [ -47.9772, -66.5499 ], [ -48.9772, -66.5499 ], [ -49.9772, -66.5499 ], [ -50.9772, -66.5499 ], [ -51.9773, -66.5499 ], [ -52.9773, -66.5499 ], [ -53.9773, -66.5499 ], [ -54.9773, -66.5499 ], [ -55.9773, -66.5499 ], [ -56.9772, -66.5499 ], [ -57.9773, -66.5499 ], [ -58.9772, -66.5499 ], [ -59.9772, -66.5499 ], [ -60.9773, -66.5499 ], [ -61.9773, -66.5499 ], [ -62.9773, -66.5499 ], [ -63.9772, -66.5499 ], [ -64.9773, -66.5499 ], [ -65.9772, -66.5499 ], [ -66.9773, -66.5499 ], [ -67.9772, -66.5499 ], [ -68.9773, -66.5499 ], [ -69.9772, -66.5499 ], [ -70.9772, -66.5499 ], [ -71.9773, -66.5499 ], [ -72.9773, -66.5499 ], [ -73.9773, -66.5499 ], [ -74.9773, -66.5499 ], [ -75.9773, -66.5499 ], [ -76.9772, -66.5499 ], [ -77.9773, -66.5499 ], [ -78.9772, -66.5499 ], [ -79.9773, -66.5499 ], [ -80.9772, -66.5499 ], [ -81.9772, -66.5499 ], [ -82.9773, -66.5499 ], [ -83.9772, -66.5499 ], [ -84.9772, -66.5499 ], [ -85.9773, -66.5499 ], [ -86.9773, -66.5499 ], [ -87.9772, -66.5499 ], [ -88.9773, -66.5499 ], [ -89.9772, -66.5499 ], [ -90.9772, -66.5499 ], [ -91.9772, -66.5499 ], [ -92.9772, -66.5499 ], [ -93.9772, -66.5499 ], [ -94.9773, -66.5499 ], [ -95.9773, -66.5499 ], [ -96.9773, -66.5499 ], [ -97.9773, -66.5499 ], [ -98.9772, -66.5499 ], [ -99.9773, -66.5499 ], [ -100.9772, -66.5499 ], [ -101.9772, -66.5499 ], [ -102.9772, -66.5499 ], [ -103.9773, -66.5499 ], [ -104.9772, -66.5499 ], [ -105.9773, -66.5499 ], [ -106.9772, -66.5499 ], [ -107.9772, -66.5499 ], [ -108.9773, -66.5499 ], [ -109.9772, -66.5499 ], [ -110.9773, -66.5499 ], [ -111.9772, -66.5499 ], [ -112.9773, -66.5499 ], [ -113.9772, -66.5499 ], [ -114.9772, -66.5499 ], [ -115.9772, -66.5499 ], [ -116.9773, -66.5499 ], [ -117.9772, -66.5499 ], [ -118.9771, -66.5499 ], [ -119.9773, -66.5499 ], [ -120.9772, -66.5499 ], [ -121.9772, -66.5499 ], [ -122.9772, -66.5499 ], [ -123.9772, -66.5499 ], [ -124.9772, -66.5499 ], [ -125.9772, -66.5499 ], [ -126.9772, -66.5499 ], [ -127.9773, -66.5499 ], [ -128.9772, -66.5499 ], [ -129.9772, -66.5499 ], [ -130.9773, -66.5499 ], [ -131.9772, -66.5499 ], [ -132.9772, -66.5499 ], [ -133.9772, -66.5499 ], [ -134.9772, -66.5499 ], [ -135.9772, -66.5499 ], [ -136.9772, -66.5499 ], [ -137.9772, -66.5499 ], [ -138.9773, -66.5499 ], [ -139.9773, -66.5499 ], [ -140.9772, -66.5499 ], [ -141.9773, -66.5499 ], [ -142.9772, -66.5499 ], [ -143.9772, -66.5499 ], [ -144.9772, -66.5499 ], [ -145.9772, -66.5499 ], [ -146.9772, -66.5499 ], [ -147.9772, -66.5499 ], [ -148.9772, -66.5499 ], [ -149.9772, -66.5499 ], [ -150.9772, -66.5499 ], [ -151.9772, -66.5499 ], [ -152.9773, -66.5499 ], [ -153.9772, -66.5499 ], [ -154.9772, -66.5499 ], [ -155.9772, -66.5499 ], [ -156.9772, -66.5499 ], [ -157.9772, -66.5499 ], [ -158.9772, -66.5499 ], [ -159.9772, -66.5499 ], [ -160.9772, -66.5499 ], [ -161.9772, -66.5499 ], [ -162.9772, -66.5499 ], [ -163.9772, -66.5499 ], [ -164.9772, -66.5499 ], [ -165.9772, -66.5499 ], [ -166.9772, -66.5499 ], [ -167.9772, -66.5499 ], [ -168.9772, -66.5499 ], [ -169.9771, -66.5499 ], [ -170.9772, -66.5499 ], [ -171.9772, -66.5499 ], [ -172.9772, -66.5499 ], [ -173.9772, -66.5499 ], [ -174.9772, -66.5499 ], [ -175.9772, -66.5499 ], [ -176.9772, -66.5499 ], [ -177.9772, -66.5499 ], [ -178.9772, -66.5499 ], [ -180.0, -66.5499 ], [ -180.0, -66.5499 ] ] } },
{ "type": "Feature", "properties": { "name": "International Date Line", "kind": "Date line" }, "geometry": { "type": "GeometryCollection", "geometries": [ { "type": "Point", "coordinates": [ 180.0, 75.0 ] }, { "type": "MultiLineString", "coordinates": [ [ [ 180.0, -52.0 ], [ 180.0, -52.5 ] ], [ [ 180.0, -52.5 ], [ 180.0, -53.0 ] ], [ [ 180.0, -53.0 ], [ 180.0, -53.5 ] ], [ [ 180.0, -53.5 ], [ 180.0, -54.0 ] ], [ [ 180.0, -54.0 ], [ 180.0, -54.5 ] ], [ [ 180.0, -54.5 ], [ 180.0, -55.0 ] ], [ [ 180.0, -55.0 ], [ 180.0, -55.5 ] ], [ [ 180.0, -55.5 ], [ 180.0, -56.0 ] ], [ [ 180.0, -56.0 ], [ 180.0, -56.5 ] ], [ [ 180.0, -56.5 ], [ 180.0, -57.0 ] ], [ [ 180.0, -57.0 ], [ 180.0, -57.5 ] ], [ [ 180.0, -57.5 ], [ 180.0, -58.0 ] ], [ [ 180.0, -58.0 ], [ 180.0, -58.5 ] ], [ [ 180.0, -58.5 ], [ 180.0, -59.0 ] ], [ [ 180.0, -59.0 ], [ 180.0, -59.5 ] ], [ [ 180.0, -59.5 ], [ 180.0, -60.0 ] ], [ [ 180.0, -60.0 ], [ 180.0, -60.5 ] ], [ [ 180.0, -60.5 ], [ 180.0, -61.0 ] ], [ [ 180.0, -61.0 ], [ 180.0, -61.5 ] ], [ [ 180.0, -61.5 ], [ 180.0, -62.0 ] ], [ [ 180.0, -62.0 ], [ 180.0, -62.5 ] ], [ [ 180.0, -62.5 ], [ 180.0, -63.0 ] ], [ [ 180.0, -63.0 ], [ 180.0, -63.5 ] ], [ [ 180.0, -63.5 ], [ 180.0, -64.0 ] ], [ [ 180.0, -64.0 ], [ 180.0, -64.5 ] ], [ [ 180.0, -64.5 ], [ 180.0, -65.0 ] ], [ [ 180.0, -65.0 ], [ 180.0, -65.5 ] ], [ [ 180.0, -65.5 ], [ 180.0, -66.0 ] ], [ [ 180.0, -66.0 ], [ 180.0, -66.5 ] ], [ [ 180.0, -66.5 ], [ 180.0, -67.0 ] ], [ [ 180.0, -67.0 ], [ 180.0, -67.5 ] ], [ [ 180.0, -67.5 ], [ 180.0, -68.0 ] ], [ [ 180.0, -68.0 ], [ 180.0, -68.5 ] ], [ [ 180.0, -68.5 ], [ 180.0, -69.0 ] ], [ [ 180.0, -69.0 ], [ 180.0, -69.5 ] ], [ [ 180.0, -69.5 ], [ 180.0, -70.0 ] ], [ [ 180.0, -70.0 ], [ 180.0, -70.5 ] ], [ [ 180.0, -70.5 ], [ 180.0, -71.0 ] ], [ [ 180.0, -71.0 ], [ 180.0, -71.5 ] ], [ [ 180.0, -71.5 ], [ 180.0, -72.0 ] ], [ [ 180.0, -72.0 ], [ 180.0, -72.5 ] ], [ [ 180.0, -72.5 ], [ 180.0, -73.0 ] ], [ [ 180.0, -73.0 ], [ 180.0, -73.5 ] ], [ [ 180.0, -73.5 ], [ 180.0, -74.0 ] ], [ [ 180.0, -74.0 ], [ 180.0, -74.5 ] ], [ [ 180.0, -74.5 ], [ 180.0, -75.0 ] ], [ [ 180.0, -75.0 ], [ 180.0, -75.5 ] ], [ [ 180.0, -75.5 ], [ 180.0, -76.0 ] ], [ [ 180.0, -76.0 ], [ 180.0, -76.5 ] ], [ [ 180.0, -76.5 ], [ 180.0, -77.0 ] ], [ [ 180.0, -77.0 ], [ 180.0, -77.5 ] ], [ [ 180.0, -77.5 ], [ 180.0, -78.0 ] ], [ [ 180.0, -78.0 ], [ 180.0, -78.5 ] ], [ [ 180.0, -78.5 ], [ 180.0, -79.0 ] ], [ [ 180.0, -79.0 ], [ 180.0, -79.5 ] ], [ [ 180.0, -79.5 ], [ 180.0, -80.0 ] ], [ [ 180.0, -80.0 ], [ 180.0, -80.5 ] ], [ [ 180.0, -80.5 ], [ 180.0, -81.0 ] ], [ [ 180.0, -81.0 ], [ 180.0, -81.5 ] ], [ [ 180.0, -81.5 ], [ 180.0, -82.0 ] ], [ [ 180.0, -82.0 ], [ 180.0, -82.5 ] ], [ [ 180.0, -82.5 ], [ 180.0, -83.0 ] ], [ [ 180.0, -83.0 ], [ 180.0, -83.5 ] ], [ [ 180.0, -83.5 ], [ 180.0, -84.0 ] ], [ [ 180.0, -84.0 ], [ 180.0, -84.5 ] ], [ [ 180.0, -84.5 ], [ 180.0, -85.0 ] ], [ [ 180.0, -85.0 ], [ 180.0, -85.5 ] ], [ [ 180.0, -85.5 ], [ 180.0, -86.0 ] ], [ [ 180.0, -86.0 ], [ 180.0, -86.5 ] ], [ [ 180.0, -86.5 ], [ 180.0, -87.0 ] ], [ [ 180.0, -87.0 ], [ 180.0, -87.5 ] ], [ [ 180.0, -87.5 ], [ 180.0, -88.0 ] ], [ [ 180.0, -88.0 ], [ 180.0, -88.5 ] ], [ [ 180.0, -88.5 ], [ 180.0, -89.0 ] ], [ [ 180.0, -89.0 ], [ 180.0, -89.5 ] ], [ [ 180.0, -89.5 ], [ 180.0, -90.0 ] ], [ [ -179.9987, -51.0038 ], [ -179.9967, -51.4955 ], [ -180.0, -52.0 ] ], [ [ -180.0, -52.0 ], [ -180.0, -52.5 ] ], [ [ -180.0, -52.5 ], [ -180.0, -53.0 ] ], [ [ -180.0, -53.0 ], [ -180.0, -53.5 ] ], [ [ -180.0, -53.5 ], [ -180.0, -54.0 ] ], [ [ -180.0, -54.0 ], [ -180.0, -54.5 ] ], [ [ -180.0, -54.5 ], [ -180.0, -55.0 ] ], [ [ -180.0, -55.0 ], [ -180.0, -55.5 ] ], [ [ -180.0, -55.5 ], [ -180.0, -56.0 ] ], [ [ -180.0, -56.0 ], [ -180.0, -56.5 ] ], [ [ -180.0, -56.5 ], [ -180.0, -57.0 ] ], [ [ -180.0, -57.0 ], [ -180.0, -57.5 ] ], [ [ -180.0, -57.5 ], [ -180.0, -58.0 ] ], [ [ -180.0, -58.0 ], [ -180.0, -58.5 ] ], [ [ -180.0, -58.5 ], [ -180.0, -59.0 ] ], [ [ -180.0, -59.0 ], [ -180.0, -59.5 ] ], [ [ -180.0, -59.5 ], [ -180.0, -60.0 ] ], [ [ -180.0, -60.0 ], [ -180.0, -60.5 ] ], [ [ -180.0, -60.5 ], [ -180.0, -61.0 ] ], [ [ -180.0, -61.0 ], [ -180.0, -61.5 ] ], [ [ -180.0, -61.5 ], [ -180.0, -62.0 ] ], [ [ -180.0, -62.0 ], [ -180.0, -62.5 ] ], [ [ -180.0, -62.5 ], [ -180.0, -63.0 ] ], [ [ -180.0, -63.0 ], [ -180.0, -63.5 ] ], [ [ -180.0, -63.5 ], [ -180.0, -64.0 ] ], [ [ -180.0, -64.0 ], [ -180.0, -64.5 ] ], [ [ -180.0, -64.5 ], [ -180.0, -65.0 ] ], [ [ -180.0, -65.0 ], [ -180.0, -65.5 ] ], [ [ -180.0, -65.5 ], [ -180.0, -66.0 ] ], [ [ -180.0, -66.0 ], [ -180.0, -66.5 ] ], [ [ -180.0, -66.5 ], [ -180.0, -67.0 ] ], [ [ -180.0, -67.0 ], [ -180.0, -67.5 ] ], [ [ -180.0, -67.5 ], [ -180.0, -68.0 ] ], [ [ -180.0, -68.0 ], [ -180.0, -68.5 ] ], [ [ -180.0, -68.5 ], [ -180.0, -69.0 ] ], [ [ -180.0, -69.0 ], [ -180.0, -69.5 ] ], [ [ -180.0, -69.5 ], [ -180.0, -70.0 ] ], [ [ -180.0, -70.0 ], [ -180.0, -70.5 ] ], [ [ -180.0, -70.5 ], [ -180.0, -71.0 ] ], [ [ -180.0, -71.0 ], [ -180.0, -71.5 ] ], [ [ -180.0, -71.5 ], [ -180.0, -72.0 ] ], [ [ -180.0, -72.0 ], [ -180.0, -72.5 ] ], [ [ -180.0, -72.5 ], [ -180.0, -73.0 ] ], [ [ -180.0, -73.0 ], [ -180.0, -73.5 ] ], [ [ -180.0, -73.5 ], [ -180.0, -74.0 ] ], [ [ -180.0, -74.0 ], [ -180.0, -74.5 ] ], [ [ -180.0, -74.5 ], [ -180.0, -75.0 ] ], [ [ -180.0, -75.0 ], [ -180.0, -75.5 ] ], [ [ -180.0, -75.5 ], [ -180.0, -76.0 ] ], [ [ -180.0, -76.0 ], [ -180.0, -76.5 ] ], [ [ -180.0, -76.5 ], [ -180.0, -77.0 ] ], [ [ -180.0, -77.0 ], [ -180.0, -77.5 ] ], [ [ -180.0, -77.5 ], [ -180.0, -78.0 ] ], [ [ -180.0, -78.0 ], [ -180.0, -78.5 ] ], [ [ -180.0, -78.5 ], [ -180.0, -79.0 ] ], [ [ -180.0, -79.0 ], [ -180.0, -79.5 ] ], [ [ -180.0, -79.5 ], [ -180.0, -80.0 ] ], [ [ -180.0, -80.0 ], [ -180.0, -80.5 ] ], [ [ -180.0, -80.5 ], [ -180.0, -81.0 ] ], [ [ -180.0, -81.0 ], [ -180.0, -81.5 ] ], [ [ -180.0, -81.5 ], [ -180.0, -82.0 ] ], [ [ -180.0, -82.0 ], [ -180.0, -82.5 ] ], [ [ -180.0, -82.5 ], [ -180.0, -83.0 ] ], [ [ -180.0, -83.0 ], [ -180.0, -83.5 ] ], [ [ -180.0, -83.5 ], [ -180.0, -84.0 ] ], [ [ -180.0, -84.0 ], [ -180.0, -84.5 ] ], [ [ -180.0, -84.5 ], [ -180.0, -85.0 ] ], [ [ -180.0, -85.0 ], [ -180.0, -85.5 ] ], [ [ -180.0, -85.5 ], [ -180.0, -86.0 ] ], [ [ -180.0, -86.0 ], [ -180.0, -86.5 ] ], [ [ -180.0, -86.5 ], [ -180.0, -87.0 ] ], [ [ -180.0, -87.0 ], [ -180.0, -87.5 ] ], [ [ -180.0, -87.5 ], [ -180.0, -88.0 ] ], [ [ -180.0, -88.0 ], [ -180.0, -88.5 ] ], [ [ -180.0, -88.5 ], [ -180.0, -89.0 ] ], [ [ -180.0, -89.0 ], [ -180.0, -89.5 ] ], [ [ -180.0, -89.5 ], [ -180.0, -90.0 ] ], [ [ -180.0, -2.5094 ], [ -179.5224, -2.5094 ], [ -178.9808, -2.5094 ], [ -178.5069, -2.5094 ], [ -178.0329, -2.5094 ], [ -177.5251, -2.5094 ], [ -177.0174, -2.5094 ], [ -176.5096, -2.5094 ], [ -175.9002, -2.5094 ], [ -175.4263, -2.5094 ], [ -174.9862, -2.5094 ], [ -174.5123, -2.5094 ], [ -173.9706, -2.5094 ], [ -173.4628, -2.5094 ], [ -172.9551, -2.5094 ], [ -172.515, -2.5094 ], [ -172.0072, -2.5094 ], [ -171.4656, -2.5094 ], [ -171.0255, -2.5094 ], [ -170.5177, -2.5094 ], [ -170.0099, -2.5094 ], [ -169.536, -2.5094 ], [ -168.9605, -2.5094 ], [ -168.4527, -2.5094 ], [ -167.9449, -2.5094 ], [ -167.3568, -2.5094 ], [ -166.7334, -2.5094 ], [ -166.227, -2.5094 ], [ -165.6816, -2.5094 ], [ -165.1264, -2.5094 ], [ -164.6395, -2.5094 ], [ -164.0746, -2.5094 ], [ -163.5097, -2.5094 ], [ -162.9643, -2.5094 ], [ -162.4383, -2.5094 ], [ -161.8929, -2.5094 ], [ -161.3865, -2.5094 ], [ -160.88, -2.5094 ], [ -160.3736, -2.5094 ], [ -159.9061, -2.5094 ], [ -159.497, -2.5094 ], [ -159.049, -2.5094 ], [ -158.4866, -2.5094 ], [ -158.4866, -1.9323 ], [ -158.4866, -1.4453 ], [ -158.4866, -1.0167 ], [ -158.4866, -0.6272 ], [ -158.4866, -0.2281 ], [ -158.9433, 0.1381 ], [ -159.3302, 0.4483 ], [ -159.6316, 0.6899 ], [ -159.99, 0.9772 ], [ -160.2891, 1.217 ], [ -160.6398, 1.4982 ], [ -160.6398, 1.983 ], [ -160.6398, 2.509 ], [ -160.6398, 2.9959 ], [ -160.6398, 3.5219 ], [ -160.6398, 4.0673 ], [ -160.6398, 4.5153 ], [ -160.6398, 4.9373 ], [ -160.0035, 4.9373 ], [ -159.4775, 4.9373 ], [ -158.9905, 4.9373 ], [ -158.5036, 4.9373 ], [ -157.9971, 4.9373 ], [ -157.4907, 4.9373 ], [ -156.9842, 4.9373 ], [ -156.4778, 4.9373 ], [ -156.02, 4.9373 ], [ -155.5286, 4.9373 ], [ -155.3436, 4.4404 ], [ -155.1566, 3.9382 ], [ -154.9482, 3.3784 ], [ -154.7421, 2.825 ], [ -154.5622, 2.342 ], [ -154.4007, 1.9083 ], [ -154.2281, 1.4448 ], [ -154.0492, 0.9642 ], [ -153.89, 0.5368 ], [ -153.7243, 0.0687 ], [ -153.5519, -0.3713 ], [ -153.3649, -0.8734 ], [ -153.1732, -1.3883 ], [ -152.9982, -1.8582 ], [ -152.824, -2.3261 ], [ -152.6457, -2.8047 ], [ -152.4453, -3.343 ], [ -152.2711, -3.8109 ], [ -152.1199, -4.2168 ], [ -151.9528, -4.6655 ], [ -151.8064, -5.0586 ], [ -151.6521, -5.4732 ], [ -151.4747, -5.9495 ], [ -151.3052, -6.4046 ], [ -151.131, -6.8725 ], [ -150.9757, -7.2895 ], [ -150.8151, -7.7208 ], [ -150.6019, -8.2933 ], [ -150.3847, -8.8766 ], [ -150.1747, -9.4408 ], [ -150.0002, -9.9092 ], [ -150.0002, -10.5003 ], [ -150.0002, -11.0002 ], [ -150.0002, -11.6454 ], [ -150.6243, -11.6454 ], [ -151.1502, -11.6454 ], [ -151.5983, -11.6454 ], [ -152.1047, -11.6454 ], [ -152.6112, -11.6454 ], [ -153.1176, -11.6454 ], [ -153.6436, -11.6454 ], [ -154.0916, -11.6454 ], [ -154.5662, -11.6454 ], [ -154.6974, -11.1425 ], [ -154.8168, -10.685 ], [ -154.9219, -10.2822 ], [ -155.0375, -9.8389 ], [ -155.1567, -9.3822 ], [ -155.2666, -8.9611 ], [ -155.3943, -8.4719 ], [ -155.5099, -8.0287 ], [ -155.6221, -7.5989 ], [ -155.74, -7.1469 ], [ -155.8654, -6.6664 ], [ -155.9763, -6.2414 ], [ -156.0804, -5.8423 ], [ -156.5387, -5.8423 ], [ -157.0633, -5.8423 ], [ -157.7128, -5.8423 ], [ -158.3124, -5.8423 ], [ -158.9119, -5.8423 ], [ -159.5615, -5.8423 ], [ -160.211, -5.8423 ], [ -160.8605, -5.8423 ], [ -161.485, -5.8423 ], [ -162.1346, -5.8423 ], [ -162.7341, -5.8423 ], [ -163.3087, -5.8423 ], [ -163.9332, -5.8423 ], [ -164.6327, -5.8423 ], [ -165.3322, -5.8423 ], [ -165.9317, -5.8423 ], [ -166.5563, -5.8423 ], [ -167.0809, -5.8423 ], [ -167.6804, -5.8423 ], [ -168.28, -5.8423 ], [ -168.8795, -5.8423 ], [ -169.3961, -5.8423 ], [ -169.6251, -6.3566 ], [ -169.8459, -6.8526 ], [ -170.0708, -7.3576 ], [ -170.3225, -7.923 ], [ -170.5495, -8.4328 ], [ -170.7631, -8.9124 ], [ -170.9928, -9.4284 ], [ -171.1002, -10.0096 ], [ -171.1815, -10.4497 ], [ -171.2938, -11.0573 ], [ -171.2493, -11.5029 ], [ -171.1985, -12.0119 ], [ -171.1518, -12.4798 ], [ -171.1037, -12.9614 ], [ -171.057, -13.4294 ], [ -171.0033, -13.9679 ], [ -171.2367, -14.431 ], [ -171.6198, -14.6036 ], [ -172.0175, -14.7828 ], [ -172.5, -15.0001 ], [ -172.5, -15.5312 ], [ -172.5, -16.0626 ], [ -172.5, -16.3944 ], [ -172.5, -16.8503 ], [ -172.5, -17.2856 ], [ -172.5, -17.6563 ], [ -172.5, -18.1875 ], [ -172.5, -18.7188 ], [ -172.5, -19.2499 ], [ -172.5, -19.7813 ], [ -172.5, -20.3126 ], [ -172.5, -20.6638 ], [ -172.5, -21.1197 ], [ -172.5, -21.5964 ], [ -172.5, -22.0006 ], [ -172.5, -22.4375 ], [ -172.5, -22.9689 ], [ -172.5, -23.5 ], [ -172.5, -24.0001 ], [ -172.5, -24.4668 ], [ -172.5, -25.0 ], [ -172.5, -25.4409 ], [ -172.5, -26.0002 ], [ -172.5, -26.3736 ], [ -172.5, -27.0001 ], [ -172.5, -27.3891 ], [ -172.5, -27.9999 ], [ -172.5, -28.4253 ], [ -172.5, -28.8191 ], [ -172.5, -29.2363 ], [ -172.5, -29.8347 ], [ -172.5, -30.3528 ], [ -172.5, -30.9375 ], [ -172.5, -31.3165 ], [ -172.5, -31.875 ], [ -172.5, -32.2906 ], [ -172.5, -32.8125 ], [ -172.5, -33.2854 ], [ -172.5, -33.7501 ], [ -172.5, -34.218 ], [ -172.5, -34.6876 ], [ -172.5, -35.1921 ], [ -172.5, -35.6249 ], [ -172.5, -36.2076 ], [ -172.5, -36.5625 ], [ -172.5, -37.1817 ], [ -172.5, -37.6895 ], [ -172.5, -38.1662 ], [ -172.5, -38.6221 ], [ -172.5, -39.1403 ], [ -172.5, -39.6791 ], [ -172.5, -40.1143 ], [ -172.5, -40.6325 ], [ -172.5, -41.25 ], [ -172.5, -41.6273 ], [ -172.5, -42.1875 ], [ -172.5, -42.6014 ], [ -172.5, -43.1251 ], [ -172.5, -43.5754 ], [ -172.5, -44.0624 ], [ -172.5, -44.5472 ], [ -172.5, -45.0 ], [ -172.8669, -45.2938 ], [ -173.2379, -45.5909 ], [ -173.5714, -45.8579 ], [ -173.9062, -46.1259 ], [ -174.375, -46.5013 ], [ -174.7082, -46.7681 ], [ -175.1625, -47.1319 ], [ -175.5811, -47.4671 ], [ -176.0576, -47.8487 ], [ -176.3759, -48.1034 ], [ -176.7187, -48.378 ], [ -177.0463, -48.6403 ], [ -177.453, -48.966 ], [ -177.824, -49.263 ], [ -178.2291, -49.5872 ], [ -178.5937, -49.8792 ], [ -178.9369, -50.1541 ], [ -179.3181, -50.4593 ], [ -179.6942, -50.7604 ], [ -180.0, -51.0053 ] ], [ [ 179.9997, 59.5019 ], [ 179.6139, 59.2694 ], [ 179.4136, 59.1479 ], [ 178.938, 58.8582 ], [ 178.6946, 58.7095 ], [ 178.5014, 58.5906 ], [ 178.2256, 58.4207 ], [ 178.0306, 58.2998 ], [ 177.5429, 57.9963 ], [ 177.2693, 57.8253 ], [ 177.0376, 57.6794 ], [ 176.7824, 57.5187 ], [ 176.5014, 57.3404 ], [ 176.0568, 57.0572 ], [ 175.7921, 56.8879 ], [ 175.5908, 56.7583 ], [ 175.2889, 56.5638 ], [ 175.076, 56.4259 ], [ 174.7805, 56.2337 ], [ 174.2671, 55.8978 ], [ 174.0087, 55.7276 ], [ 173.749, 55.556 ], [ 173.4881, 55.3829 ], [ 173.2262, 55.2083 ], [ 172.963, 55.0323 ], [ 172.6987, 54.8548 ], [ 172.4334, 54.6759 ], [ 172.167, 54.4955 ], [ 171.8997, 54.3136 ], [ 171.6311, 54.1304 ], [ 171.3616, 53.9456 ], [ 171.0911, 53.7594 ], [ 170.8197, 53.5717 ], [ 170.5474, 53.3825 ], [ 170.274, 53.192 ], [ 169.9997, 52.9999 ], [ 170.4874, 52.7657 ], [ 170.7999, 52.6151 ], [ 171.3394, 52.3537 ], [ 171.7345, 52.1613 ], [ 172.0628, 52.0007 ], [ 172.684, 51.6963 ], [ 172.9671, 51.5572 ], [ 173.3544, 51.3658 ], [ 173.6813, 51.2044 ], [ 174.4536, 50.8209 ], [ 174.8597, 50.6183 ], [ 175.2784, 50.4088 ], [ 175.7089, 50.1929 ], [ 176.1504, 49.9706 ], [ 176.6023, 49.7423 ], [ 177.0641, 49.5083 ], [ 177.5347, 49.2688 ], [ 178.0138, 49.0242 ], [ 178.3128, 48.8709 ], [ 178.7526, 48.645 ], [ 179.192, 48.4184 ], [ 179.5604, 48.2194 ], [ 180.0, 48.0 ] ], [ [ 180.0, -0.5055 ], [ 180.0, -1.0163 ], [ 180.0, -1.5409 ], [ 180.0, -2.0 ], [ 180.0, -2.5 ] ], [ [ -180.0, 48.0 ], [ -180.0, 47.5051 ], [ -180.0, 47.0101 ], [ -180.0, 46.5152 ], [ -180.0, 46.0202 ], [ -180.0, 45.5253 ], [ -180.0, 45.0303 ], [ -180.0, 44.5354 ], [ -180.0, 44.0404 ], [ -180.0, 43.5455 ], [ -180.0, 43.0505 ], [ -180.0, 42.5556 ], [ -180.0, 42.0606 ], [ -180.0, 41.5657 ], [ -180.0, 41.0707 ], [ -180.0, 40.5758 ], [ -180.0, 40.0808 ], [ -180.0, 39.5859 ], [ -180.0, 39.0909 ], [ -180.0, 38.596 ], [ -180.0, 38.101 ], [ -180.0, 37.6061 ], [ -180.0, 37.1111 ], [ -180.0, 36.6162 ], [ -180.0, 36.1212 ], [ -180.0, 35.6263 ], [ -180.0, 35.1313 ], [ -180.0, 34.6364 ], [ -180.0, 34.1414 ], [ -180.0, 33.6465 ], [ -180.0, 33.1515 ], [ -180.0, 32.6566 ], [ -180.0, 32.1616 ], [ -180.0, 31.6667 ], [ -180.0, 31.1717 ], [ -180.0, 30.6768 ], [ -180.0, 30.1818 ], [ -180.0, 29.6869 ], [ -180.0, 29.1919 ], [ -180.0, 28.697 ], [ -180.0, 28.202 ], [ -180.0, 27.7071 ], [ -180.0, 27.2121 ], [ -180.0, 26.7172 ], [ -180.0, 26.2222 ], [ -180.0, 25.7273 ], [ -180.0, 25.2323 ], [ -180.0, 24.7374 ], [ -180.0, 24.2424 ], [ -180.0, 23.7475 ], [ -180.0, 23.2525 ], [ -180.0, 22.7576 ], [ -180.0, 22.2626 ], [ -180.0, 21.7677 ], [ -180.0, 21.2727 ], [ -180.0, 20.7778 ], [ -180.0, 20.2828 ], [ -180.0, 19.7879 ], [ -180.0, 19.2929 ], [ -180.0, 18.798 ], [ -180.0, 18.303 ], [ -180.0, 17.8081 ], [ -180.0, 17.3131 ], [ -180.0, 16.8182 ], [ -180.0, 16.3232 ], [ -180.0, 15.8283 ], [ -180.0, 15.3333 ], [ -180.0, 14.8384 ], [ -180.0, 14.3434 ], [ -180.0, 13.8485 ], [ -180.0, 13.3535 ], [ -180.0, 12.8586 ], [ -180.0, 12.3636 ], [ -180.0, 11.8687 ], [ -180.0, 11.3737 ], [ -180.0, 10.8788 ], [ -180.0, 10.3838 ], [ -180.0, 9.8889 ], [ -180.0, 9.3939 ], [ -180.0, 8.899 ], [ -180.0, 8.404 ], [ -180.0, 7.9091 ], [ -180.0, 7.4141 ], [ -180.0, 6.9192 ], [ -180.0, 6.4242 ], [ -180.0, 5.9293 ], [ -180.0, 5.4343 ], [ -180.0, 4.9394 ], [ -180.0, 4.4444 ], [ -180.0, 3.9495 ], [ -180.0, 3.4545 ], [ -180.0, 2.9596 ], [ -180.0, 2.4646 ], [ -180.0, 1.9697 ], [ -180.0, 1.4747 ], [ -180.0, 0.9798 ], [ -180.0, 0.4848 ], [ -180.0, -0.0101 ], [ -180.0, -0.5051 ], [ -180.0, -0.5055 ] ], [ [ -180.0, 75.0 ], [ -179.6094, 74.7519 ], [ -179.126, 74.5147 ], [ -178.7295, 74.2916 ], [ -178.3247, 74.0612 ], [ -177.9976, 73.8732 ], [ -177.6486, 73.6711 ], [ -177.2873, 73.4603 ], [ -176.6989, 73.113 ], [ -176.2988, 72.8743 ], [ -175.9176, 72.645 ], [ -175.4435, 72.3568 ], [ -175.0018, 72.0854 ], [ -174.5949, 71.8327 ], [ -174.1325, 71.5424 ], [ -173.6604, 71.2421 ], [ -173.0703, 70.8612 ], [ -172.7272, 70.6362 ], [ -172.2593, 70.3253 ], [ -171.7888, 70.0077 ], [ -171.4737, 69.7919 ], [ -171.1367, 69.5584 ], [ -170.8897, 69.3839 ], [ -170.4404, 69.0629 ], [ -170.1304, 68.8373 ], [ -169.6985, 68.5162 ], [ -169.3899, 68.2481 ], [ -169.0, 68.0 ], [ -169.0, 67.5833 ], [ -169.0, 67.1667 ], [ -169.0, 66.75 ], [ -169.0, 66.3333 ], [ -169.0, 65.9167 ], [ -169.0, 65.5 ], [ -169.4172, 65.3087 ], [ -169.8344, 65.1173 ], [ -170.2517, 64.882 ], [ -170.6331, 64.6929 ], [ -171.0603, 64.4773 ], [ -171.5326, 64.2361 ], [ -171.8261, 64.0843 ], [ -172.3313, 63.8214 ], [ -172.6073, 63.6769 ], [ -173.1785, 63.3743 ], [ -173.4834, 63.2109 ], [ -173.786, 63.0485 ], [ -174.4284, 62.6997 ], [ -174.7603, 62.5173 ], [ -175.1048, 62.3278 ], [ -175.4666, 62.1266 ], [ -175.7622, 61.9621 ], [ -176.1718, 61.7319 ], [ -176.3803, 61.6141 ], [ -176.745, 61.4068 ], [ -177.1209, 61.1921 ], [ -177.3828, 61.0418 ], [ -177.5927, 60.9205 ], [ -177.9527, 60.7119 ], [ -178.2049, 60.5652 ], [ -178.627, 60.318 ], [ -178.8089, 60.2107 ], [ -179.0563, 60.0648 ], [ -179.4926, 59.8056 ], [ -180.0, 59.5019 ] ], [ [ -180.0, 90.0 ], [ -180.0, 89.5 ], [ -180.0, 89.0 ], [ -180.0, 88.5 ], [ -180.0, 88.0 ], [ -180.0, 87.5 ], [ -180.0, 87.0 ], [ -180.0, 86.5 ], [ -180.0, 86.0 ], [ -180.0, 85.5 ], [ -180.0, 85.0 ], [ -180.0, 84.5 ], [ -180.0, 84.0 ], [ -180.0, 83.5 ], [ -180.0, 83.0 ], [ -180.0, 82.5 ], [ -180.0, 82.0 ], [ -180.0, 81.5 ], [ -180.0, 81.0 ], [ -180.0, 80.5 ], [ -180.0, 80.0 ], [ -180.0, 79.5 ], [ -180.0, 79.0 ], [ -180.0, 78.5 ], [ -180.0, 78.0 ], [ -180.0, 77.5 ], [ -180.0, 77.0 ], [ -180.0, 76.5 ], [ -180.0, 76.0 ], [ -180.0, 75.5 ], [ -180.0, 75.0 ] ] ] } ] } }
]
}
